{"type":"FeatureCollection","source":"OpenStreetMap contributors, ODbL - relation 1702499 (fetched 2026-09-25)","features":[{"type":"Feature","properties":{"name":"Čunovo","slug":"cunovo","osm_relation":2208780},"geometry":{"type":"MultiPolygon","coordinates":[[[[17.143822,48.020188],[17.144805,48.020467],[17.148615,48.022223],[17.148126,48.022796],[17.149771,48.023696],[17.150874,48.024519],[17.153184,48.025952],[17.154893,48.027184],[17.157216,48.029088],[17.157658,48.029688],[17.157983,48.029946],[17.163051,48.032728],[17.164072,48.03326],[17.164914,48.033598],[17.165059,48.033839],[17.165776,48.03458],[17.167809,48.036573],[17.167738,48.036807],[17.167836,48.036901],[17.170833,48.03917],[17.173396,48.040168],[17.174963,48.039773],[17.176727,48.039619],[17.17813,48.040062],[17.178147,48.04018],[17.177381,48.041165],[17.175286,48.041611],[17.174315,48.041917],[17.17612,48.043498],[17.17783,48.04466],[17.178575,48.045907],[17.178868,48.047193],[17.179987,48.048549],[17.1809,48.049141],[17.182022,48.049623],[17.186669,48.052788],[17.187371,48.053795],[17.190942,48.052784],[17.192569,48.052183],[17.196428,48.05001],[17.198477,48.048961],[17.201823,48.047356],[17.205178,48.045912],[17.210197,48.044132],[17.214933,48.042871],[17.216758,48.042277],[17.220621,48.040795],[17.222812,48.039752],[17.224021,48.038914],[17.224921,48.038074],[17.22685,48.035718],[17.229205,48.033191],[17.229846,48.032381],[17.231123,48.03049],[17.231963,48.029581],[17.233241,48.028607],[17.235266,48.027435],[17.237303,48.026088],[17.238953,48.024795],[17.240657,48.023286],[17.241769,48.022465],[17.240307,48.02158],[17.240453,48.020563],[17.239253,48.019979],[17.238089,48.019549],[17.2371,48.018985],[17.236085,48.018563],[17.23268,48.017977],[17.226627,48.016229],[17.220742,48.016466],[17.214137,48.019078],[17.208038,48.019142],[17.207122,48.01908],[17.205802,48.019286],[17.202885,48.019975],[17.201782,48.020069],[17.200051,48.019806],[17.199388,48.019456],[17.199427,48.019275],[17.19904,48.018318],[17.198346,48.017686],[17.19441,48.018404],[17.193163,48.018204],[17.191031,48.017655],[17.189848,48.017107],[17.187209,48.016217],[17.181981,48.014626],[17.179212,48.01365],[17.176759,48.013062],[17.175591,48.01294],[17.171999,48.011821],[17.170788,48.011248],[17.16726,48.010026],[17.166093,48.009471],[17.165007,48.009184],[17.162888,48.008289],[17.162088,48.007884],[17.160773,48.006664],[17.158317,48.008252],[17.15405,48.011198],[17.151839,48.012402],[17.15009,48.013552],[17.149359,48.014235],[17.148408,48.014933],[17.145912,48.017644],[17.143822,48.020188]]]]}},{"type":"Feature","properties":{"name":"Devín","slug":"devin","osm_relation":2208776},"geometry":{"type":"MultiPolygon","coordinates":[[[[16.975482,48.175035],[16.97549,48.176601],[16.975683,48.177573],[16.976116,48.178815],[16.976989,48.180395],[16.977399,48.181513],[16.977445,48.182305],[16.977386,48.182857],[16.977267,48.183396],[16.976781,48.184644],[16.976538,48.185694],[16.976484,48.186452],[16.976532,48.187097],[16.979076,48.187204],[16.980314,48.187374],[16.981413,48.188266],[16.981697,48.189619],[16.98193,48.190208],[16.981793,48.19132],[16.982116,48.191666],[16.982156,48.192505],[16.982843,48.193076],[16.983517,48.192964],[16.985389,48.192317],[16.986535,48.192389],[16.987662,48.192164],[16.98964,48.191586],[16.990492,48.191104],[16.990642,48.190948],[16.990798,48.19051],[16.991253,48.190032],[16.992074,48.189524],[16.992285,48.189313],[16.993236,48.18879],[16.993482,48.188535],[16.993901,48.188616],[16.994875,48.189054],[16.996731,48.190455],[16.996221,48.191332],[16.996517,48.191632],[16.997661,48.192475],[16.99834,48.19286],[16.998986,48.192334],[16.999149,48.19229],[17.000117,48.191383],[17.000809,48.1898],[17.001395,48.188932],[17.003114,48.18826],[17.003685,48.187754],[17.00398,48.187596],[17.006055,48.187033],[17.00781,48.185933],[17.008243,48.185879],[17.009081,48.185539],[17.011016,48.185788],[17.011536,48.185558],[17.013453,48.185621],[17.013588,48.185388],[17.014589,48.184463],[17.013763,48.1844],[17.012313,48.184546],[17.010623,48.183779],[17.011229,48.183176],[17.0115,48.182444],[17.012663,48.181249],[17.013867,48.180449],[17.014387,48.179689],[17.014534,48.179581],[17.015226,48.179671],[17.016327,48.179041],[17.016567,48.178721],[17.016647,48.178455],[17.016846,48.178239],[17.017746,48.177582],[17.017989,48.177008],[17.018438,48.17649],[17.018492,48.176192],[17.019439,48.175318],[17.019677,48.175253],[17.019814,48.174829],[17.020215,48.174506],[17.020521,48.174102],[17.020488,48.173571],[17.020637,48.172951],[17.020739,48.172907],[17.021158,48.173063],[17.02179,48.173447],[17.021862,48.173622],[17.022071,48.173724],[17.022417,48.17448],[17.022672,48.1746],[17.02295,48.175035],[17.023601,48.175751],[17.02519,48.176483],[17.025205,48.176624],[17.025603,48.176904],[17.025699,48.177125],[17.026266,48.176811],[17.027671,48.175586],[17.028307,48.175206],[17.028234,48.175174],[17.028194,48.174953],[17.028403,48.173664],[17.029432,48.17336],[17.029792,48.17301],[17.030419,48.172955],[17.030728,48.173031],[17.030772,48.173244],[17.030677,48.173488],[17.030238,48.173971],[17.03,48.173981],[17.030156,48.174252],[17.030189,48.174874],[17.029968,48.175462],[17.029761,48.175686],[17.030334,48.175491],[17.032782,48.175237],[17.032739,48.174948],[17.032606,48.17482],[17.032605,48.174643],[17.032762,48.174486],[17.033806,48.17425],[17.034594,48.174307],[17.034741,48.174521],[17.035082,48.174654],[17.035157,48.174761],[17.036437,48.174403],[17.036777,48.174517],[17.037458,48.174502],[17.037657,48.174752],[17.038067,48.174833],[17.03902,48.174823],[17.03938,48.174777],[17.039801,48.174595],[17.040731,48.174554],[17.041103,48.174277],[17.042026,48.173967],[17.042624,48.173311],[17.042894,48.172674],[17.042783,48.172435],[17.041823,48.17254],[17.041761,48.172274],[17.040585,48.172431],[17.040526,48.172275],[17.040352,48.172174],[17.040388,48.172027],[17.039946,48.17214],[17.039795,48.171823],[17.04441,48.169635],[17.046091,48.168195],[17.046262,48.167968],[17.046176,48.167449],[17.043437,48.168733],[17.042238,48.169115],[17.041992,48.169046],[17.041502,48.168616],[17.041367,48.168079],[17.042852,48.167435],[17.044564,48.166814],[17.044403,48.166728],[17.044302,48.166542],[17.043821,48.166595],[17.043557,48.166235],[17.04344,48.16625],[17.043385,48.166092],[17.043272,48.166107],[17.043221,48.165953],[17.042942,48.165988],[17.042802,48.165679],[17.042862,48.165359],[17.042762,48.165334],[17.043186,48.16458],[17.042916,48.164382],[17.041353,48.165222],[17.041156,48.165054],[17.04116,48.16497],[17.040739,48.165215],[17.040508,48.164158],[17.040723,48.164049],[17.040433,48.163814],[17.041296,48.163267],[17.042174,48.162849],[17.041643,48.162903],[17.04141,48.162726],[17.041497,48.162584],[17.04323,48.162309],[17.045381,48.161145],[17.045174,48.160624],[17.044614,48.160327],[17.044649,48.16025],[17.044214,48.160079],[17.044367,48.159771],[17.043778,48.159692],[17.043538,48.15934],[17.043636,48.159242],[17.043599,48.158997],[17.044349,48.158774],[17.044355,48.158181],[17.043035,48.158482],[17.04268,48.158656],[17.042093,48.159228],[17.041576,48.158938],[17.042534,48.157926],[17.042718,48.157888],[17.042556,48.157686],[17.042596,48.157034],[17.042538,48.156843],[17.041993,48.156067],[17.041942,48.155609],[17.040695,48.155705],[17.040548,48.154995],[17.040689,48.154369],[17.040083,48.154287],[17.039577,48.154374],[17.039301,48.153867],[17.03914,48.153937],[17.038962,48.153859],[17.039039,48.153726],[17.03851,48.15369],[17.038206,48.153236],[17.038069,48.153194],[17.038091,48.152817],[17.036598,48.152987],[17.036167,48.152168],[17.035567,48.151267],[17.035552,48.151034],[17.035344,48.150882],[17.035318,48.150635],[17.033578,48.151098],[17.033139,48.151102],[17.031999,48.150692],[17.030676,48.15001],[17.030166,48.149846],[17.029372,48.149761],[17.028357,48.149888],[17.027292,48.150186],[17.024137,48.151388],[17.019077,48.154159],[17.01832,48.154605],[17.018029,48.154897],[17.017053,48.155533],[17.01643,48.155724],[17.015492,48.155418],[17.015041,48.154898],[17.014947,48.154484],[17.014856,48.154414],[17.013999,48.154305],[17.013767,48.154173],[17.01401,48.153886],[17.015241,48.153088],[17.017185,48.151567],[17.018417,48.150957],[17.019356,48.149822],[17.019817,48.149224],[17.018362,48.148463],[17.016824,48.149997],[17.015387,48.151292],[17.014121,48.152323],[17.012587,48.153325],[17.009883,48.154721],[16.999674,48.158707],[16.995249,48.160826],[16.990868,48.163393],[16.989364,48.164397],[16.985233,48.167391],[16.983726,48.168329],[16.98183,48.169347],[16.978979,48.170686],[16.976231,48.172164],[16.975482,48.175035]]]]}},{"type":"Feature","properties":{"name":"Devínska Nová Ves","slug":"devinska-nova-ves","osm_relation":2208779},"geometry":{"type":"MultiPolygon","coordinates":[[[[16.957262,48.263483],[16.957703,48.263482],[16.957963,48.263233],[16.959624,48.263091],[16.959641,48.261883],[16.959795,48.260904],[16.959764,48.260349],[16.96019,48.260389],[16.960331,48.260166],[16.960832,48.25997],[16.961072,48.26001],[16.961866,48.259871],[16.961801,48.25964],[16.962246,48.259577],[16.962132,48.259191],[16.962859,48.25913],[16.962723,48.258862],[16.96313,48.258822],[16.963392,48.258688],[16.963692,48.258446],[16.96424,48.258234],[16.965312,48.257517],[16.968632,48.25441],[16.96874,48.254211],[16.969536,48.253514],[16.970485,48.252522],[16.980734,48.2412],[16.980807,48.241164],[16.984856,48.243005],[16.986783,48.243794],[16.989931,48.239621],[16.991965,48.2403],[17.001071,48.228191],[17.004794,48.229787],[17.007521,48.229831],[17.00829,48.227587],[17.008859,48.225008],[17.008823,48.224756],[17.00771,48.221838],[17.007485,48.221416],[17.006806,48.220538],[17.006995,48.22057],[17.006873,48.220417],[17.008907,48.220733],[17.009652,48.221086],[17.010059,48.221464],[17.01353,48.220415],[17.015873,48.220389],[17.014024,48.219172],[17.012446,48.2178],[17.013905,48.216724],[17.013621,48.216604],[17.013745,48.216568],[17.015849,48.214225],[17.016027,48.212307],[17.016089,48.212227],[17.019291,48.210203],[17.024331,48.207205],[17.027888,48.205257],[17.02789,48.205197],[17.030375,48.203902],[17.030645,48.203872],[17.032481,48.202872],[17.02703,48.20316],[17.026908,48.203038],[17.023933,48.203151],[17.023713,48.202836],[17.021562,48.202593],[17.020804,48.202604],[17.020402,48.203235],[17.010521,48.203619],[17.007815,48.203936],[17.006602,48.203917],[17.006636,48.20373],[17.00538,48.202639],[17.00517,48.202108],[17.005586,48.202218],[17.007434,48.200116],[17.011905,48.198765],[17.012425,48.198068],[17.012507,48.196882],[17.01266,48.196431],[17.012671,48.196027],[17.012804,48.195494],[17.012794,48.194541],[17.01301,48.194109],[17.01303,48.193893],[17.012859,48.193583],[17.013222,48.192822],[17.013073,48.192447],[17.013073,48.190523],[17.012768,48.189778],[17.012625,48.1896],[17.011472,48.189039],[17.011354,48.188818],[17.011476,48.188248],[17.011845,48.187652],[17.011952,48.187312],[17.012342,48.186784],[17.013448,48.185955],[17.013395,48.185842],[17.013453,48.185621],[17.011536,48.185558],[17.011016,48.185788],[17.009081,48.185539],[17.008243,48.185879],[17.00781,48.185933],[17.006055,48.187033],[17.00398,48.187596],[17.003685,48.187754],[17.003114,48.18826],[17.001395,48.188932],[17.000809,48.1898],[17.000117,48.191383],[16.999149,48.19229],[16.998986,48.192334],[16.99834,48.19286],[16.997661,48.192475],[16.996517,48.191632],[16.996221,48.191332],[16.996731,48.190455],[16.994875,48.189054],[16.993901,48.188616],[16.993482,48.188535],[16.993236,48.18879],[16.992285,48.189313],[16.992074,48.189524],[16.991253,48.190032],[16.990798,48.19051],[16.990642,48.190948],[16.990492,48.191104],[16.98964,48.191586],[16.987662,48.192164],[16.986535,48.192389],[16.985389,48.192317],[16.983517,48.192964],[16.982843,48.193076],[16.982156,48.192505],[16.982116,48.191666],[16.981793,48.19132],[16.98193,48.190208],[16.981697,48.189619],[16.981413,48.188266],[16.980314,48.187374],[16.979076,48.187204],[16.976532,48.187097],[16.97658,48.188597],[16.976437,48.189369],[16.976059,48.190388],[16.97546,48.191347],[16.972806,48.19436],[16.971828,48.195767],[16.971385,48.196783],[16.970194,48.200842],[16.969795,48.201681],[16.969175,48.202515],[16.967795,48.204029],[16.967054,48.205269],[16.966447,48.206735],[16.965637,48.209459],[16.965221,48.210226],[16.964784,48.21079],[16.963108,48.212537],[16.962463,48.213566],[16.962129,48.214449],[16.961937,48.215367],[16.962057,48.217495],[16.962186,48.218295],[16.962145,48.219527],[16.96178,48.220827],[16.96094,48.222452],[16.959399,48.224569],[16.957935,48.226122],[16.956716,48.227215],[16.955835,48.227889],[16.954214,48.228954],[16.950355,48.231003],[16.949632,48.231455],[16.948411,48.232407],[16.947433,48.233427],[16.946765,48.23435],[16.946449,48.234947],[16.946121,48.235881],[16.946065,48.237109],[16.946718,48.241662],[16.947021,48.242225],[16.947826,48.243171],[16.948264,48.243902],[16.948364,48.244263],[16.948524,48.245987],[16.949468,48.247844],[16.949759,48.248759],[16.949824,48.249647],[16.949664,48.251239],[16.949782,48.252242],[16.951432,48.256652],[16.951774,48.257274],[16.952112,48.257677],[16.955372,48.260436],[16.956716,48.261975],[16.957245,48.262789],[16.957327,48.263019],[16.957262,48.263483]]]]}},{"type":"Feature","properties":{"name":"Dúbravka","slug":"dubravka","osm_relation":2208772},"geometry":{"type":"MultiPolygon","coordinates":[[[[17.011229,48.183176],[17.0115,48.182444],[17.012663,48.181249],[17.013867,48.180449],[17.014387,48.179689],[17.014534,48.179581],[17.015226,48.179671],[17.016327,48.179041],[17.016567,48.178721],[17.016647,48.178455],[17.016846,48.178239],[17.017746,48.177582],[17.017989,48.177008],[17.018438,48.17649],[17.018492,48.176192],[17.019439,48.175318],[17.019677,48.175253],[17.019814,48.174829],[17.020215,48.174506],[17.020521,48.174102],[17.020488,48.173571],[17.020637,48.172951],[17.020739,48.172907],[17.021584,48.173285],[17.02179,48.173447],[17.021862,48.173622],[17.022071,48.173724],[17.022417,48.17448],[17.022672,48.1746],[17.02295,48.175035],[17.023601,48.175751],[17.02519,48.176483],[17.025205,48.176624],[17.025603,48.176904],[17.025699,48.177125],[17.026266,48.176811],[17.027671,48.175586],[17.028307,48.175206],[17.028234,48.175174],[17.028194,48.174953],[17.028403,48.173664],[17.029432,48.17336],[17.029792,48.17301],[17.030419,48.172955],[17.030728,48.173031],[17.030772,48.173244],[17.030677,48.173488],[17.030238,48.173971],[17.03,48.173981],[17.030156,48.174252],[17.030189,48.174874],[17.029968,48.175462],[17.029761,48.175686],[17.030334,48.175491],[17.032782,48.175237],[17.032739,48.174948],[17.032606,48.17482],[17.032605,48.174643],[17.032762,48.174486],[17.033806,48.17425],[17.034594,48.174307],[17.034741,48.174521],[17.035082,48.174654],[17.035157,48.174761],[17.036437,48.174403],[17.036777,48.174517],[17.037458,48.174502],[17.037657,48.174752],[17.038067,48.174833],[17.03902,48.174823],[17.03938,48.174777],[17.039801,48.174595],[17.040731,48.174554],[17.041103,48.174277],[17.042026,48.173967],[17.042624,48.173311],[17.042894,48.172674],[17.042783,48.172435],[17.041823,48.17254],[17.041761,48.172274],[17.040585,48.172431],[17.040526,48.172275],[17.040352,48.172174],[17.040388,48.172027],[17.039946,48.17214],[17.039795,48.171823],[17.042122,48.170692],[17.043854,48.169953],[17.044719,48.169372],[17.044397,48.170366],[17.046098,48.170301],[17.047543,48.170123],[17.050267,48.169968],[17.050353,48.170323],[17.050466,48.170442],[17.050669,48.170448],[17.050775,48.170892],[17.051171,48.170781],[17.05121,48.171144],[17.05213,48.170963],[17.052963,48.170667],[17.052758,48.172429],[17.052961,48.173137],[17.053604,48.173415],[17.053218,48.174055],[17.05327,48.174663],[17.05384,48.174693],[17.054122,48.175442],[17.054904,48.175352],[17.055583,48.175084],[17.055591,48.174837],[17.055797,48.174624],[17.058234,48.173891],[17.058176,48.17372],[17.058358,48.173625],[17.058321,48.173589],[17.05889,48.173241],[17.05912,48.173212],[17.059396,48.173223],[17.059766,48.173428],[17.059362,48.17404],[17.059995,48.175057],[17.061222,48.174726],[17.061828,48.175171],[17.062604,48.175159],[17.063954,48.175428],[17.064114,48.175601],[17.06405,48.175726],[17.063553,48.176028],[17.063609,48.176103],[17.062641,48.176882],[17.062393,48.17683],[17.062295,48.177069],[17.060955,48.177982],[17.058975,48.179063],[17.055708,48.18013],[17.054799,48.179922],[17.053743,48.180221],[17.053506,48.180449],[17.053302,48.180965],[17.053108,48.181205],[17.052097,48.181645],[17.050522,48.182513],[17.047434,48.1846],[17.047335,48.184805],[17.047423,48.18517],[17.045715,48.187393],[17.045183,48.18841],[17.044563,48.190259],[17.042964,48.196345],[17.042581,48.19742],[17.042403,48.197425],[17.042318,48.197626],[17.042338,48.19802],[17.041913,48.199221],[17.041629,48.199554],[17.041665,48.199595],[17.040999,48.20006],[17.039136,48.201082],[17.038611,48.201242],[17.037734,48.201676],[17.034783,48.202585],[17.033113,48.202818],[17.031176,48.202978],[17.02703,48.20316],[17.026908,48.203038],[17.023933,48.203151],[17.023713,48.202836],[17.021562,48.202593],[17.020804,48.202604],[17.020402,48.203235],[17.010521,48.203619],[17.007815,48.203936],[17.006602,48.203917],[17.006636,48.20373],[17.00538,48.202639],[17.00517,48.202108],[17.005586,48.202218],[17.007434,48.200116],[17.011905,48.198765],[17.012425,48.198068],[17.01249,48.197852],[17.012507,48.196882],[17.01266,48.196431],[17.012671,48.196027],[17.012804,48.195494],[17.012794,48.194541],[17.01301,48.194109],[17.01303,48.193893],[17.012859,48.193583],[17.013222,48.192822],[17.013073,48.192447],[17.013073,48.190523],[17.012768,48.189778],[17.012625,48.1896],[17.011472,48.189039],[17.011354,48.188818],[17.011476,48.188248],[17.011845,48.187652],[17.011952,48.187312],[17.012342,48.186784],[17.013448,48.185955],[17.013395,48.185842],[17.013588,48.185388],[17.014589,48.184463],[17.013763,48.1844],[17.012313,48.184546],[17.010623,48.183779],[17.011229,48.183176]]]]}},{"type":"Feature","properties":{"name":"Jarovce","slug":"jarovce","osm_relation":2208774},"geometry":{"type":"MultiPolygon","coordinates":[[[[17.07017,48.057003],[17.071712,48.056238],[17.075498,48.059064],[17.086791,48.065356],[17.07223,48.070457],[17.07558,48.074517],[17.078914,48.078236],[17.071572,48.08094],[17.071734,48.081178],[17.074849,48.082647],[17.073132,48.083381],[17.07367,48.084399],[17.073877,48.084453],[17.073949,48.08458],[17.073823,48.084652],[17.074556,48.085922],[17.076437,48.086202],[17.089641,48.092232],[17.091328,48.090566],[17.09314,48.091431],[17.100259,48.088627],[17.09963,48.088333],[17.107436,48.085283],[17.107204,48.085169],[17.118563,48.081006],[17.124478,48.084556],[17.124144,48.085888],[17.126882,48.086434],[17.12948,48.088173],[17.13189,48.089308],[17.133619,48.090399],[17.138214,48.092751],[17.143709,48.095253],[17.144781,48.094264],[17.145631,48.093271],[17.146706,48.091815],[17.147879,48.09003],[17.151997,48.083136],[17.152475,48.081905],[17.152935,48.079829],[17.153227,48.07891],[17.15362,48.077999],[17.154587,48.076195],[17.155753,48.074447],[17.156505,48.073605],[17.157718,48.072443],[17.156669,48.072063],[17.149154,48.072745],[17.141595,48.073672],[17.140083,48.073252],[17.13866,48.072661],[17.136721,48.071577],[17.132439,48.068274],[17.130908,48.06675],[17.129881,48.06587],[17.129269,48.065085],[17.12928,48.064976],[17.125893,48.062601],[17.125368,48.062108],[17.125398,48.061951],[17.124068,48.060576],[17.119856,48.057369],[17.114073,48.053767],[17.107795,48.049646],[17.103881,48.046397],[17.10021,48.043592],[17.097176,48.041461],[17.091668,48.037795],[17.088857,48.03721],[17.076601,48.028392],[17.075694,48.027483],[17.069542,48.030603],[17.067423,48.031428],[17.068649,48.032249],[17.072401,48.034182],[17.075079,48.035773],[17.074245,48.036339],[17.081192,48.040715],[17.083783,48.042517],[17.085827,48.044297],[17.08779,48.045676],[17.087263,48.04642],[17.086607,48.047747],[17.085694,48.049277],[17.084257,48.050384],[17.082474,48.050635],[17.079529,48.051331],[17.077448,48.052067],[17.076086,48.052306],[17.074005,48.052861],[17.071259,48.053928],[17.06896,48.054987],[17.06825,48.055395],[17.07017,48.057003]]]]}},{"type":"Feature","properties":{"name":"Karlova Ves","slug":"karlova-ves","osm_relation":2208777},"geometry":{"type":"MultiPolygon","coordinates":[[[[17.018362,48.148463],[17.019817,48.149224],[17.019356,48.149822],[17.018417,48.150957],[17.017185,48.151567],[17.015241,48.153088],[17.01401,48.153886],[17.013767,48.154173],[17.013999,48.154305],[17.014856,48.154414],[17.014947,48.154484],[17.015041,48.154898],[17.015348,48.155293],[17.016034,48.155642],[17.016613,48.155713],[17.017053,48.155533],[17.018029,48.154897],[17.01832,48.154605],[17.019077,48.154159],[17.024137,48.151388],[17.027292,48.150186],[17.028357,48.149888],[17.029372,48.149761],[17.030166,48.149846],[17.030676,48.15001],[17.031999,48.150692],[17.033139,48.151102],[17.033578,48.151098],[17.035318,48.150635],[17.035344,48.150882],[17.035552,48.151034],[17.035567,48.151267],[17.036167,48.152168],[17.036598,48.152987],[17.038091,48.152817],[17.038069,48.153194],[17.038206,48.153236],[17.03851,48.15369],[17.039039,48.153726],[17.038962,48.153859],[17.03914,48.153937],[17.039301,48.153867],[17.039577,48.154374],[17.040083,48.154287],[17.040629,48.154323],[17.040689,48.154369],[17.040548,48.154995],[17.040695,48.155705],[17.041942,48.155609],[17.041993,48.156067],[17.042538,48.156843],[17.042596,48.157034],[17.042556,48.157686],[17.042718,48.157888],[17.042534,48.157926],[17.041576,48.158938],[17.042093,48.159228],[17.04268,48.158656],[17.043035,48.158482],[17.044355,48.158181],[17.044349,48.158774],[17.043599,48.158997],[17.043636,48.159242],[17.043538,48.15934],[17.043778,48.159692],[17.044367,48.159771],[17.044214,48.160079],[17.044649,48.16025],[17.044614,48.160327],[17.045174,48.160624],[17.045381,48.161145],[17.04323,48.162309],[17.041497,48.162584],[17.04141,48.162726],[17.041643,48.162903],[17.042174,48.162849],[17.041296,48.163267],[17.040433,48.163814],[17.040723,48.164049],[17.040508,48.164158],[17.040739,48.165215],[17.04116,48.16497],[17.041156,48.165054],[17.041353,48.165222],[17.042916,48.164382],[17.043186,48.16458],[17.042762,48.165334],[17.042862,48.165359],[17.042802,48.165679],[17.042942,48.165988],[17.043221,48.165953],[17.043272,48.166107],[17.043385,48.166092],[17.04344,48.16625],[17.043557,48.166235],[17.043821,48.166595],[17.044302,48.166542],[17.044403,48.166728],[17.044564,48.166814],[17.042852,48.167435],[17.041367,48.168079],[17.041502,48.168616],[17.041992,48.169046],[17.042238,48.169115],[17.043437,48.168733],[17.046176,48.167449],[17.046262,48.167968],[17.046091,48.168195],[17.044719,48.169372],[17.044397,48.170366],[17.046098,48.170301],[17.047543,48.170123],[17.050267,48.169968],[17.050353,48.170323],[17.050466,48.170442],[17.050669,48.170448],[17.050775,48.170892],[17.051171,48.170781],[17.05121,48.171144],[17.05213,48.170963],[17.052963,48.170667],[17.052758,48.172429],[17.052961,48.173137],[17.053604,48.173415],[17.053218,48.174055],[17.05327,48.174663],[17.05384,48.174693],[17.054122,48.175442],[17.054904,48.175352],[17.055583,48.175084],[17.055591,48.174837],[17.055797,48.174624],[17.058234,48.173891],[17.058176,48.17372],[17.05889,48.173241],[17.059396,48.173223],[17.059766,48.173428],[17.059362,48.17404],[17.059393,48.174171],[17.059995,48.175057],[17.061222,48.174726],[17.061828,48.175171],[17.062604,48.175159],[17.064055,48.175483],[17.064114,48.175601],[17.06405,48.175726],[17.063553,48.176028],[17.063609,48.176103],[17.062641,48.176882],[17.063067,48.177021],[17.063346,48.177241],[17.063837,48.178019],[17.064409,48.178536],[17.066405,48.177663],[17.06673,48.177663],[17.066948,48.177525],[17.066903,48.177447],[17.067022,48.177354],[17.069442,48.176377],[17.070244,48.176707],[17.071488,48.176113],[17.071447,48.175573],[17.073053,48.174953],[17.073448,48.174505],[17.073778,48.174311],[17.073881,48.174129],[17.073797,48.174056],[17.073783,48.173783],[17.073931,48.173259],[17.073901,48.172089],[17.073767,48.171898],[17.072905,48.171302],[17.072386,48.171221],[17.072135,48.171014],[17.076285,48.168725],[17.07789,48.167309],[17.077859,48.167116],[17.077669,48.166913],[17.077895,48.166833],[17.076712,48.165524],[17.076496,48.16508],[17.076414,48.16462],[17.076446,48.162203],[17.076541,48.161759],[17.076574,48.160555],[17.076498,48.160482],[17.076471,48.160166],[17.076554,48.156646],[17.077221,48.153139],[17.076865,48.151979],[17.076659,48.150888],[17.076405,48.147165],[17.076525,48.146771],[17.07613,48.146761],[17.075932,48.146027],[17.074917,48.144793],[17.074461,48.144381],[17.074395,48.144207],[17.074255,48.144187],[17.07353,48.140605],[17.072238,48.140855],[17.069676,48.141153],[17.069387,48.141275],[17.069336,48.141501],[17.064486,48.142013],[17.062961,48.142273],[17.061145,48.142283],[17.057356,48.141793],[17.0572,48.143727],[17.056427,48.143602],[17.044714,48.140765],[17.039977,48.139971],[17.038336,48.139792],[17.035471,48.13972],[17.03383,48.139788],[17.030793,48.140132],[17.028454,48.140501],[17.027189,48.140787],[17.025348,48.141467],[17.023804,48.14238],[17.022999,48.143063],[17.01941,48.147341],[17.018362,48.148463]]]]}},{"type":"Feature","properties":{"name":"Lamač","slug":"lamac","osm_relation":2208775},"geometry":{"type":"MultiPolygon","coordinates":[[[[17.015873,48.220389],[17.014024,48.219172],[17.012446,48.2178],[17.013905,48.216724],[17.013621,48.216604],[17.013745,48.216568],[17.015849,48.214225],[17.016027,48.212307],[17.016089,48.212227],[17.019291,48.210203],[17.024331,48.207205],[17.027888,48.205257],[17.02789,48.205197],[17.030375,48.203902],[17.030645,48.203872],[17.032481,48.202872],[17.034783,48.202585],[17.037734,48.201676],[17.038611,48.201242],[17.039136,48.201082],[17.040999,48.20006],[17.041665,48.199595],[17.041629,48.199554],[17.041913,48.199221],[17.042338,48.19802],[17.042318,48.197626],[17.042403,48.197425],[17.042581,48.19742],[17.042964,48.196345],[17.044563,48.190259],[17.045183,48.18841],[17.045715,48.187393],[17.047423,48.18517],[17.047335,48.184805],[17.047434,48.1846],[17.050522,48.182513],[17.052097,48.181645],[17.053108,48.181205],[17.053302,48.180965],[17.053506,48.180449],[17.053743,48.180221],[17.054799,48.179922],[17.055708,48.18013],[17.058975,48.179063],[17.060955,48.177982],[17.062295,48.177069],[17.062393,48.17683],[17.063067,48.177021],[17.063346,48.177241],[17.063837,48.178019],[17.064629,48.178726],[17.065442,48.179699],[17.066096,48.180073],[17.066606,48.180497],[17.067004,48.181028],[17.067386,48.181843],[17.069512,48.182349],[17.069778,48.18283],[17.069013,48.183538],[17.068812,48.183971],[17.06978,48.184212],[17.070457,48.184544],[17.069391,48.186155],[17.069171,48.186687],[17.069026,48.186657],[17.068158,48.187458],[17.068248,48.187486],[17.068201,48.187585],[17.067506,48.188134],[17.067954,48.189341],[17.067556,48.18948],[17.067505,48.189591],[17.066825,48.18971],[17.066069,48.190622],[17.066829,48.19148],[17.065933,48.191644],[17.065334,48.191499],[17.064701,48.191537],[17.064161,48.191394],[17.063962,48.19766],[17.065324,48.198571],[17.065973,48.1993],[17.06604,48.199857],[17.065813,48.201374],[17.066681,48.202507],[17.06503,48.204321],[17.064643,48.204968],[17.064404,48.206339],[17.06473,48.208861],[17.065775,48.210788],[17.065669,48.21152],[17.065719,48.211777],[17.066906,48.213588],[17.067702,48.214318],[17.066054,48.214545],[17.065371,48.214822],[17.064741,48.214722],[17.063506,48.215005],[17.062928,48.214834],[17.062174,48.214369],[17.061757,48.213693],[17.061068,48.213939],[17.060291,48.214351],[17.059226,48.214457],[17.058251,48.21429],[17.058028,48.214124],[17.057177,48.21384],[17.056601,48.213361],[17.056308,48.212854],[17.056333,48.212218],[17.056863,48.21168],[17.05784,48.210362],[17.058739,48.209353],[17.058751,48.209234],[17.058606,48.208681],[17.058619,48.20655],[17.058143,48.2058],[17.058494,48.204329],[17.058084,48.20385],[17.057319,48.203308],[17.057123,48.202526],[17.057206,48.202231],[17.057717,48.201635],[17.057512,48.201383],[17.057311,48.200745],[17.057112,48.200443],[17.056995,48.199916],[17.056835,48.199841],[17.056182,48.199861],[17.055758,48.199753],[17.055373,48.199386],[17.055154,48.198938],[17.05492,48.198751],[17.054502,48.198681],[17.053849,48.198388],[17.053548,48.198135],[17.052114,48.197975],[17.051686,48.198372],[17.051123,48.198434],[17.050871,48.198557],[17.049939,48.199281],[17.049844,48.199385],[17.049674,48.199952],[17.048926,48.200542],[17.048745,48.200944],[17.048089,48.20125],[17.047489,48.201751],[17.044791,48.202174],[17.043156,48.202555],[17.042624,48.20274],[17.042198,48.202995],[17.041584,48.203752],[17.041222,48.204486],[17.041325,48.204593],[17.041267,48.204684],[17.040751,48.204995],[17.040001,48.205807],[17.03881,48.207729],[17.038079,48.20764],[17.037715,48.207737],[17.031875,48.211834],[17.030851,48.212985],[17.024112,48.219538],[17.023782,48.219697],[17.021346,48.220028],[17.018646,48.219714],[17.01815,48.219773],[17.015873,48.220389]]]]}},{"type":"Feature","properties":{"name":"Nové Mesto","slug":"nove-mesto","osm_relation":2190576},"geometry":{"type":"MultiPolygon","coordinates":[[[[17.064409,48.178536],[17.065211,48.179356],[17.065442,48.179699],[17.066096,48.180073],[17.066746,48.180651],[17.067386,48.181843],[17.069512,48.182349],[17.069778,48.18283],[17.069013,48.183538],[17.068812,48.183971],[17.06978,48.184212],[17.070457,48.184544],[17.069391,48.186155],[17.069171,48.186687],[17.069026,48.186657],[17.068158,48.187458],[17.068248,48.187486],[17.068201,48.187585],[17.067506,48.188134],[17.067954,48.189341],[17.067556,48.18948],[17.067505,48.189591],[17.066825,48.18971],[17.066069,48.190622],[17.066829,48.19148],[17.065933,48.191644],[17.065334,48.191499],[17.064701,48.191537],[17.064161,48.191394],[17.063962,48.19766],[17.065324,48.198571],[17.065973,48.1993],[17.06604,48.199857],[17.065813,48.201374],[17.066681,48.202507],[17.06503,48.204321],[17.064643,48.204968],[17.064404,48.206339],[17.06473,48.208861],[17.065775,48.210788],[17.065669,48.21152],[17.065719,48.211777],[17.066906,48.213588],[17.068118,48.214698],[17.068584,48.21603],[17.069034,48.21673],[17.069669,48.217225],[17.070506,48.218862],[17.070407,48.219451],[17.069911,48.220527],[17.071609,48.22169],[17.072518,48.222139],[17.073142,48.222234],[17.074111,48.222573],[17.075572,48.223278],[17.077841,48.223142],[17.08054,48.221928],[17.081428,48.221966],[17.083565,48.22138],[17.084269,48.221278],[17.086473,48.220268],[17.088843,48.217852],[17.089603,48.217816],[17.090661,48.217938],[17.09068,48.218077],[17.090496,48.218232],[17.089648,48.218645],[17.089588,48.218958],[17.089402,48.219125],[17.08921,48.219483],[17.089214,48.22008],[17.089347,48.220216],[17.089274,48.220482],[17.089095,48.220427],[17.088987,48.220558],[17.089356,48.22075],[17.089338,48.220866],[17.089517,48.221023],[17.089426,48.221368],[17.089458,48.221726],[17.089679,48.221818],[17.089734,48.222078],[17.090272,48.222175],[17.090741,48.22204],[17.091191,48.222113],[17.091239,48.22196],[17.091681,48.221978],[17.09178,48.222062],[17.09184,48.22194],[17.091773,48.221813],[17.091905,48.221773],[17.091892,48.221591],[17.09196,48.221553],[17.092188,48.221598],[17.092361,48.221442],[17.092703,48.22133],[17.09368,48.22132],[17.09383,48.221569],[17.09418,48.221493],[17.094336,48.221849],[17.09449,48.221853],[17.094591,48.221991],[17.09509,48.221944],[17.095132,48.222082],[17.095592,48.222197],[17.095583,48.22248],[17.095834,48.222547],[17.095893,48.222947],[17.096221,48.223286],[17.096571,48.223382],[17.096678,48.223519],[17.096935,48.223519],[17.097066,48.223596],[17.097307,48.223884],[17.097242,48.223997],[17.097401,48.223972],[17.097506,48.224087],[17.097717,48.224054],[17.097842,48.223928],[17.098227,48.22391],[17.09831,48.224035],[17.098468,48.223992],[17.098699,48.224069],[17.099132,48.2238],[17.09931,48.223785],[17.099292,48.223729],[17.099596,48.223687],[17.099615,48.223561],[17.100128,48.223388],[17.100363,48.223524],[17.100254,48.223658],[17.100238,48.223738],[17.100301,48.223747],[17.100388,48.223646],[17.100798,48.223563],[17.100612,48.223447],[17.100746,48.223241],[17.100698,48.223201],[17.101027,48.223169],[17.101123,48.223056],[17.101353,48.223102],[17.101487,48.223255],[17.101682,48.223132],[17.101902,48.223191],[17.102602,48.223041],[17.102751,48.223132],[17.103009,48.223032],[17.102886,48.222952],[17.102917,48.222836],[17.103142,48.22296],[17.103364,48.222921],[17.103406,48.222822],[17.103283,48.222736],[17.103571,48.222537],[17.104166,48.222568],[17.104574,48.222841],[17.104824,48.222911],[17.104849,48.223017],[17.105141,48.223055],[17.105315,48.223171],[17.105511,48.22313],[17.10571,48.223243],[17.105735,48.223082],[17.10591,48.223084],[17.105899,48.223337],[17.106136,48.223269],[17.10636,48.223709],[17.106307,48.223852],[17.106562,48.22406],[17.106599,48.224268],[17.106763,48.224301],[17.106686,48.224391],[17.106856,48.224785],[17.106794,48.224835],[17.107369,48.225054],[17.107091,48.225198],[17.107208,48.225315],[17.107334,48.225287],[17.107425,48.225402],[17.1073,48.22542],[17.107249,48.22567],[17.107641,48.22576],[17.107464,48.225947],[17.107339,48.225971],[17.107443,48.226079],[17.107393,48.226139],[17.107639,48.22613],[17.107651,48.22623],[17.107954,48.226549],[17.108485,48.226793],[17.108652,48.22703],[17.108841,48.227034],[17.109024,48.226902],[17.10907,48.227041],[17.109234,48.227124],[17.109272,48.227317],[17.109502,48.227314],[17.109618,48.227439],[17.109597,48.227583],[17.109734,48.227746],[17.109998,48.227575],[17.109997,48.227709],[17.110222,48.227742],[17.110192,48.227849],[17.109991,48.227989],[17.110188,48.227984],[17.111118,48.227588],[17.111428,48.227298],[17.111744,48.226747],[17.11265,48.226327],[17.113453,48.225656],[17.114314,48.225182],[17.114539,48.224998],[17.114871,48.224522],[17.115469,48.22411],[17.115759,48.223585],[17.117384,48.222665],[17.118033,48.222439],[17.11806,48.221964],[17.118204,48.221597],[17.118005,48.220858],[17.118802,48.220046],[17.119173,48.219195],[17.11955,48.218926],[17.119619,48.218707],[17.118379,48.21824],[17.118202,48.217755],[17.117677,48.217323],[17.118772,48.216705],[17.119694,48.216414],[17.120883,48.215149],[17.121134,48.214554],[17.121562,48.213903],[17.122816,48.212843],[17.124584,48.211823],[17.125021,48.211118],[17.124956,48.210686],[17.125307,48.209801],[17.1257,48.209274],[17.126554,48.208496],[17.125494,48.207827],[17.123781,48.207034],[17.12247,48.206328],[17.121385,48.207197],[17.120983,48.206743],[17.120708,48.206123],[17.120656,48.205863],[17.120952,48.205294],[17.121272,48.204945],[17.122737,48.204018],[17.125262,48.20262],[17.126311,48.202218],[17.127561,48.2011],[17.12763,48.200953],[17.1273,48.200703],[17.127344,48.200545],[17.127739,48.20028],[17.128539,48.199958],[17.131747,48.198945],[17.132194,48.198869],[17.133017,48.199035],[17.133743,48.19904],[17.134339,48.198982],[17.134821,48.19876],[17.134199,48.197465],[17.134246,48.196439],[17.134193,48.196132],[17.133226,48.194691],[17.132686,48.194204],[17.131537,48.193399],[17.13046,48.192468],[17.129648,48.192044],[17.129527,48.191741],[17.128429,48.190512],[17.127797,48.189587],[17.127929,48.189575],[17.128093,48.189382],[17.130438,48.188769],[17.131012,48.18875],[17.134718,48.187511],[17.134512,48.187439],[17.134719,48.187399],[17.135289,48.186737],[17.136526,48.186889],[17.136901,48.186819],[17.146866,48.187919],[17.154397,48.188889],[17.15542,48.188927],[17.155406,48.188996],[17.154648,48.188921],[17.156023,48.189097],[17.155921,48.189058],[17.155947,48.188992],[17.156246,48.189115],[17.174391,48.191109],[17.182749,48.192122],[17.188764,48.1925],[17.189202,48.18954],[17.182313,48.189179],[17.180392,48.188942],[17.178514,48.188463],[17.174616,48.187041],[17.1752,48.186912],[17.174198,48.186029],[17.169375,48.180245],[17.168992,48.180208],[17.169126,48.180048],[17.167276,48.177987],[17.167301,48.177822],[17.166844,48.177376],[17.166349,48.177114],[17.166457,48.177022],[17.16599,48.176777],[17.166053,48.176724],[17.165342,48.176059],[17.158131,48.169706],[17.156064,48.168031],[17.155502,48.16782],[17.155344,48.167551],[17.154014,48.166921],[17.151411,48.165866],[17.150118,48.165409],[17.149962,48.165428],[17.148416,48.164823],[17.148095,48.164814],[17.146572,48.164179],[17.146333,48.16397],[17.142393,48.162423],[17.14236,48.162256],[17.140822,48.161587],[17.14046,48.16144],[17.140365,48.161546],[17.137704,48.160438],[17.137769,48.16033],[17.135651,48.159466],[17.135583,48.159545],[17.133876,48.158912],[17.133819,48.158974],[17.133131,48.158744],[17.131249,48.15867],[17.129253,48.158441],[17.128783,48.158632],[17.12872,48.158565],[17.129186,48.158364],[17.129145,48.158288],[17.128502,48.158281],[17.12802,48.158371],[17.127765,48.158093],[17.124985,48.155943],[17.124883,48.155929],[17.120297,48.15739],[17.120157,48.157211],[17.119338,48.157578],[17.118169,48.157354],[17.118162,48.157514],[17.116986,48.158077],[17.115376,48.15947],[17.114739,48.15951],[17.11476,48.159609],[17.114627,48.15962],[17.113897,48.159186],[17.11387,48.159373],[17.113448,48.159619],[17.111215,48.158983],[17.109612,48.158821],[17.109068,48.158836],[17.108938,48.158756],[17.108167,48.158881],[17.10768,48.159057],[17.107519,48.159302],[17.107113,48.159543],[17.104896,48.160221],[17.103655,48.161151],[17.102502,48.161782],[17.099933,48.162627],[17.095895,48.163111],[17.095339,48.163313],[17.094725,48.163403],[17.092743,48.163514],[17.092884,48.163394],[17.092431,48.163333],[17.092449,48.163477],[17.091645,48.16389],[17.088004,48.164274],[17.085478,48.165003],[17.083359,48.165959],[17.081794,48.167029],[17.080802,48.16799],[17.078334,48.170956],[17.078181,48.171239],[17.077482,48.171974],[17.076218,48.172986],[17.073448,48.174505],[17.073053,48.174953],[17.071447,48.175573],[17.071488,48.176113],[17.070244,48.176707],[17.069442,48.176377],[17.067022,48.177354],[17.066903,48.177447],[17.066948,48.177525],[17.06673,48.177663],[17.066405,48.177663],[17.064409,48.178536]]]]}},{"type":"Feature","properties":{"name":"Petržalka","slug":"petrzalka","osm_relation":2208781},"geometry":{"type":"MultiPolygon","coordinates":[[[[17.057356,48.141793],[17.061145,48.142283],[17.062961,48.142273],[17.064486,48.142013],[17.069336,48.141501],[17.069387,48.141275],[17.069676,48.141153],[17.072238,48.140855],[17.07353,48.140605],[17.073896,48.142414],[17.07521,48.141996],[17.077998,48.141488],[17.080773,48.141273],[17.095242,48.138606],[17.098195,48.138365],[17.101013,48.138267],[17.104406,48.138225],[17.111359,48.138346],[17.117047,48.138254],[17.11689,48.135872],[17.117366,48.135859],[17.117165,48.135976],[17.11737,48.138246],[17.120854,48.138081],[17.124692,48.137738],[17.131937,48.136677],[17.134363,48.136223],[17.13629,48.13569],[17.139454,48.134458],[17.141029,48.133445],[17.142676,48.13226],[17.144766,48.129623],[17.145292,48.128763],[17.146009,48.127012],[17.146258,48.126129],[17.146355,48.125213],[17.146359,48.122501],[17.14626,48.121586],[17.145749,48.119744],[17.145405,48.118817],[17.143973,48.116913],[17.143102,48.11595],[17.140792,48.113985],[17.139949,48.113023],[17.138685,48.111132],[17.138279,48.110201],[17.138142,48.109287],[17.138017,48.107468],[17.138102,48.106576],[17.139116,48.101745],[17.139729,48.09998],[17.142531,48.096519],[17.143506,48.095185],[17.138214,48.092751],[17.133619,48.090399],[17.13189,48.089308],[17.12948,48.088173],[17.126882,48.086434],[17.124144,48.085888],[17.124478,48.084556],[17.118563,48.081006],[17.107204,48.085169],[17.107436,48.085283],[17.09963,48.088333],[17.100259,48.088627],[17.09314,48.091431],[17.091391,48.092992],[17.087769,48.096557],[17.092707,48.099645],[17.083723,48.103006],[17.083339,48.10252],[17.077419,48.10595],[17.079081,48.107894],[17.072873,48.110292],[17.077065,48.115105],[17.076514,48.115085],[17.074383,48.114504],[17.07385,48.114455],[17.072821,48.114511],[17.07208,48.114932],[17.070694,48.115316],[17.069921,48.115702],[17.068641,48.116125],[17.068185,48.11643],[17.068006,48.116645],[17.068196,48.117077],[17.068083,48.118028],[17.067969,48.11817],[17.06674,48.118681],[17.066213,48.118995],[17.065902,48.11928],[17.065588,48.119728],[17.064744,48.12043],[17.063956,48.120904],[17.063601,48.120892],[17.063573,48.121005],[17.062786,48.12148],[17.062398,48.122083],[17.062184,48.12302],[17.062369,48.123233],[17.063002,48.123457],[17.063475,48.123515],[17.064424,48.123422],[17.064912,48.123245],[17.065384,48.123251],[17.066793,48.123698],[17.067519,48.123509],[17.067974,48.123533],[17.068685,48.123818],[17.068807,48.123934],[17.068816,48.124208],[17.068353,48.124776],[17.067681,48.125298],[17.067823,48.125649],[17.067824,48.125865],[17.06727,48.126217],[17.067137,48.126424],[17.067211,48.126621],[17.067875,48.127047],[17.067623,48.127432],[17.06628,48.128197],[17.065166,48.127959],[17.064392,48.128035],[17.064299,48.128111],[17.064207,48.12855],[17.064079,48.128742],[17.065562,48.129345],[17.06369,48.130753],[17.06262,48.131774],[17.062062,48.132539],[17.061956,48.133447],[17.061422,48.133468],[17.060145,48.135756],[17.061636,48.135997],[17.061625,48.136918],[17.061262,48.138212],[17.060938,48.138928],[17.060144,48.139958],[17.059675,48.140253],[17.059356,48.14035],[17.059556,48.140876],[17.059449,48.141226],[17.058754,48.14152],[17.057356,48.141793]]]]}},{"type":"Feature","properties":{"name":"Podunajské Biskupice","slug":"podunajske-biskupice","osm_relation":2185278},"geometry":{"type":"MultiPolygon","coordinates":[[[[17.143709,48.095253],[17.145046,48.093972],[17.146706,48.091815],[17.147879,48.09003],[17.151253,48.084467],[17.151849,48.083435],[17.152269,48.082504],[17.15265,48.081252],[17.153026,48.079511],[17.153783,48.077677],[17.155351,48.074976],[17.15616,48.073977],[17.157072,48.073043],[17.159331,48.070976],[17.161851,48.068852],[17.163154,48.06793],[17.16511,48.066782],[17.16618,48.065955],[17.167049,48.065029],[17.168996,48.062421],[17.169602,48.061751],[17.170377,48.061116],[17.172008,48.059998],[17.173989,48.058405],[17.175476,48.057576],[17.177115,48.056916],[17.178501,48.05649],[17.183042,48.055316],[17.187371,48.053795],[17.194428,48.063892],[17.202084,48.061663],[17.2008,48.065372],[17.201695,48.067077],[17.200725,48.068324],[17.201293,48.068706],[17.20195,48.069566],[17.202079,48.070058],[17.201547,48.070187],[17.200828,48.070543],[17.201079,48.070791],[17.201797,48.072206],[17.202859,48.073769],[17.204329,48.075429],[17.205429,48.075567],[17.207341,48.075997],[17.209052,48.076655],[17.209699,48.077103],[17.210784,48.078046],[17.211547,48.07895],[17.211876,48.079488],[17.212103,48.080002],[17.212152,48.080737],[17.211811,48.08187],[17.211361,48.082656],[17.210579,48.0835],[17.209523,48.084328],[17.208649,48.084898],[17.20672,48.085737],[17.213048,48.09276],[17.213747,48.092195],[17.213994,48.092447],[17.215099,48.092712],[17.214891,48.093439],[17.215296,48.093594],[17.216,48.09458],[17.216817,48.094419],[17.217746,48.095654],[17.217947,48.09636],[17.218078,48.097697],[17.216335,48.099634],[17.216728,48.100032],[17.217215,48.100748],[17.217526,48.100991],[17.216809,48.10166],[17.21667,48.102314],[17.21673,48.102682],[17.216943,48.103124],[17.217309,48.103495],[17.217783,48.10372],[17.218198,48.103808],[17.218468,48.103811],[17.21923,48.103622],[17.219736,48.103704],[17.219994,48.103884],[17.220384,48.103765],[17.223794,48.10533],[17.226132,48.10664],[17.228287,48.107341],[17.229899,48.10806],[17.236059,48.11158],[17.238081,48.111384],[17.239183,48.111441],[17.240615,48.112262],[17.242813,48.111993],[17.244053,48.111637],[17.24431,48.111431],[17.245521,48.112253],[17.246313,48.111863],[17.247493,48.111136],[17.248509,48.110379],[17.248831,48.110244],[17.249964,48.109971],[17.251017,48.109968],[17.252089,48.109521],[17.254021,48.109126],[17.254362,48.108972],[17.254795,48.108364],[17.255163,48.10817],[17.258542,48.10769],[17.259858,48.107418],[17.262182,48.106751],[17.262992,48.106389],[17.263606,48.106006],[17.26438,48.105362],[17.264908,48.10446],[17.266601,48.103456],[17.268202,48.102845],[17.2702,48.10233],[17.276152,48.100122],[17.277615,48.102043],[17.280647,48.106408],[17.280724,48.106399],[17.283186,48.110198],[17.2833,48.112764],[17.284531,48.116683],[17.283107,48.116594],[17.281846,48.116611],[17.280014,48.116746],[17.279331,48.116947],[17.28277,48.120779],[17.281358,48.121963],[17.280106,48.123411],[17.274727,48.122671],[17.269288,48.123573],[17.264997,48.123836],[17.264467,48.125396],[17.264059,48.126333],[17.262574,48.129385],[17.260954,48.132123],[17.25978,48.134467],[17.258679,48.135713],[17.257901,48.13608],[17.256783,48.136416],[17.255844,48.1365],[17.253491,48.136908],[17.253563,48.137693],[17.241871,48.138922],[17.241903,48.139167],[17.241822,48.139415],[17.240839,48.141232],[17.240338,48.142475],[17.239358,48.143238],[17.238923,48.143757],[17.238497,48.144061],[17.238162,48.144173],[17.237439,48.144179],[17.23651,48.143858],[17.236049,48.143856],[17.222644,48.138582],[17.221435,48.138071],[17.22055,48.137332],[17.218414,48.13616],[17.217667,48.136065],[17.216591,48.138246],[17.216341,48.138417],[17.215809,48.138447],[17.215288,48.138293],[17.212293,48.137036],[17.206754,48.134645],[17.203612,48.137873],[17.203505,48.13815],[17.203062,48.1387],[17.20286,48.139097],[17.202672,48.140112],[17.202675,48.14059],[17.202174,48.140603],[17.201844,48.141138],[17.202027,48.141872],[17.202187,48.141976],[17.202409,48.141914],[17.202763,48.143051],[17.202637,48.14307],[17.202049,48.14368],[17.200166,48.143936],[17.199809,48.143779],[17.199301,48.143367],[17.197929,48.14194],[17.196251,48.142603],[17.192819,48.140568],[17.192728,48.140664],[17.189804,48.13859],[17.189961,48.138534],[17.187157,48.136893],[17.186561,48.136609],[17.185851,48.136401],[17.186066,48.136028],[17.186456,48.135829],[17.187001,48.135264],[17.186851,48.135205],[17.187669,48.13435],[17.187252,48.134094],[17.188097,48.133532],[17.18822,48.133354],[17.188228,48.132949],[17.187062,48.131641],[17.186432,48.131104],[17.186218,48.130784],[17.186308,48.130689],[17.186422,48.130243],[17.186842,48.130305],[17.187742,48.12867],[17.187691,48.12897],[17.191668,48.129098],[17.19326,48.127507],[17.193801,48.127096],[17.195228,48.107032],[17.17319,48.106328],[17.17292,48.105516],[17.171954,48.104299],[17.170717,48.103543],[17.16989,48.103783],[17.169332,48.104211],[17.169198,48.104619],[17.168361,48.104886],[17.166704,48.104966],[17.164451,48.104937],[17.161758,48.104684],[17.16139,48.104458],[17.160769,48.104298],[17.159933,48.10426],[17.157938,48.103258],[17.156779,48.103003],[17.154507,48.100896],[17.149106,48.100474],[17.149582,48.09773],[17.145324,48.096004],[17.143709,48.095253]]]]}},{"type":"Feature","properties":{"name":"Rača","slug":"raca","osm_relation":2190577},"geometry":{"type":"MultiPolygon","coordinates":[[[[17.10997,48.227956],[17.110188,48.227984],[17.111118,48.227588],[17.111428,48.227298],[17.111744,48.226747],[17.11265,48.226327],[17.113453,48.225656],[17.114539,48.224998],[17.114871,48.224522],[17.115469,48.22411],[17.115759,48.223585],[17.117384,48.222665],[17.118033,48.222439],[17.11806,48.221964],[17.118204,48.221597],[17.118005,48.220858],[17.118802,48.220046],[17.119173,48.219195],[17.11955,48.218926],[17.119619,48.218707],[17.118379,48.21824],[17.118202,48.217755],[17.117677,48.217323],[17.118772,48.216705],[17.119694,48.216414],[17.120883,48.215149],[17.121134,48.214554],[17.121562,48.213903],[17.122816,48.212843],[17.124584,48.211823],[17.125021,48.211118],[17.124956,48.210686],[17.125307,48.209801],[17.1257,48.209274],[17.126554,48.208496],[17.125494,48.207827],[17.123781,48.207034],[17.12247,48.206328],[17.121385,48.207197],[17.120983,48.206743],[17.120708,48.206123],[17.120656,48.205863],[17.120952,48.205294],[17.121272,48.204945],[17.122737,48.204018],[17.125262,48.20262],[17.126311,48.202218],[17.127561,48.2011],[17.12763,48.200953],[17.1273,48.200703],[17.127344,48.200545],[17.127739,48.20028],[17.128539,48.199958],[17.131747,48.198945],[17.132194,48.198869],[17.133017,48.199035],[17.133743,48.19904],[17.134339,48.198982],[17.134821,48.19876],[17.134199,48.197465],[17.134246,48.196439],[17.134193,48.196132],[17.133226,48.194691],[17.132686,48.194204],[17.131537,48.193399],[17.13046,48.192468],[17.129648,48.192044],[17.129527,48.191741],[17.128429,48.190512],[17.127797,48.189587],[17.127929,48.189575],[17.128093,48.189382],[17.130438,48.188769],[17.131012,48.18875],[17.134718,48.187511],[17.134512,48.187439],[17.134719,48.187399],[17.135289,48.186737],[17.136526,48.186889],[17.136901,48.186819],[17.146866,48.187919],[17.154397,48.188889],[17.15542,48.188927],[17.155406,48.188996],[17.154648,48.188921],[17.156023,48.189097],[17.155921,48.189058],[17.155947,48.188992],[17.156246,48.189115],[17.174391,48.191109],[17.180182,48.191837],[17.183726,48.192224],[17.187093,48.19244],[17.186877,48.195932],[17.186248,48.197117],[17.184424,48.201316],[17.184303,48.202043],[17.184244,48.203432],[17.184313,48.205098],[17.183093,48.209236],[17.183045,48.209707],[17.181521,48.211761],[17.181087,48.21211],[17.180818,48.21274],[17.179771,48.214187],[17.178741,48.21582],[17.17851,48.216434],[17.178468,48.216825],[17.178066,48.217517],[17.178778,48.217621],[17.17844,48.218641],[17.177824,48.218551],[17.177584,48.218863],[17.175951,48.220241],[17.175664,48.220664],[17.173124,48.222098],[17.171981,48.222642],[17.170895,48.222965],[17.169971,48.223596],[17.168187,48.225113],[17.167951,48.225455],[17.167639,48.226512],[17.166233,48.227981],[17.166378,48.228102],[17.166011,48.228361],[17.165166,48.228746],[17.164372,48.228928],[17.164027,48.22925],[17.16401,48.229477],[17.164143,48.229688],[17.164013,48.229856],[17.163972,48.230126],[17.163771,48.230227],[17.163841,48.230301],[17.163768,48.230342],[17.163768,48.230664],[17.163491,48.230901],[17.163549,48.23099],[17.16326,48.231223],[17.163036,48.23165],[17.163057,48.231893],[17.1625,48.232492],[17.162218,48.232691],[17.16135,48.232971],[17.161267,48.233067],[17.161308,48.233167],[17.161111,48.233343],[17.160549,48.233326],[17.160347,48.233418],[17.160241,48.233563],[17.1599,48.233694],[17.159873,48.233822],[17.15967,48.233998],[17.158977,48.234449],[17.158543,48.234572],[17.158569,48.234674],[17.158427,48.234749],[17.158155,48.23474],[17.157841,48.235126],[17.157574,48.235207],[17.157439,48.235428],[17.157122,48.235542],[17.156989,48.23568],[17.157003,48.235789],[17.156568,48.236047],[17.156498,48.236165],[17.156533,48.236296],[17.156119,48.236871],[17.155917,48.236955],[17.155725,48.236905],[17.155578,48.237142],[17.155193,48.237362],[17.15483,48.237972],[17.154566,48.238059],[17.154396,48.238362],[17.154095,48.238542],[17.153735,48.23854],[17.153336,48.23838],[17.152592,48.238488],[17.152059,48.23866],[17.151956,48.238618],[17.150957,48.238768],[17.149736,48.239056],[17.148359,48.239092],[17.14773,48.239186],[17.146708,48.239889],[17.146403,48.239993],[17.145979,48.239952],[17.145458,48.240076],[17.145216,48.24024],[17.144946,48.240708],[17.145054,48.241151],[17.144952,48.241378],[17.14502,48.241535],[17.144744,48.242518],[17.144201,48.243242],[17.143119,48.243756],[17.14165,48.243414],[17.140583,48.242643],[17.138976,48.242065],[17.13711,48.242154],[17.136437,48.242274],[17.135283,48.242696],[17.134222,48.242837],[17.133567,48.242796],[17.133082,48.242633],[17.13267,48.242768],[17.131296,48.242827],[17.130886,48.242949],[17.130033,48.242789],[17.129586,48.242938],[17.128945,48.242753],[17.128357,48.242816],[17.128259,48.242866],[17.128361,48.243043],[17.128138,48.243106],[17.127827,48.242998],[17.127278,48.242952],[17.127105,48.242695],[17.126849,48.242693],[17.126622,48.242835],[17.126167,48.242877],[17.125402,48.242613],[17.124974,48.242569],[17.124547,48.242269],[17.124373,48.241953],[17.124108,48.241816],[17.123718,48.24189],[17.123642,48.242048],[17.123504,48.242113],[17.12314,48.241913],[17.12283,48.242096],[17.122303,48.242028],[17.122202,48.242107],[17.121687,48.241865],[17.121659,48.241588],[17.121466,48.241367],[17.121122,48.241264],[17.120797,48.24142],[17.120538,48.241417],[17.119936,48.241292],[17.119717,48.241165],[17.119425,48.241201],[17.118873,48.241026],[17.118371,48.241102],[17.118228,48.241036],[17.118139,48.241089],[17.117741,48.241044],[17.117451,48.240293],[17.117046,48.240213],[17.11642,48.240288],[17.116232,48.240126],[17.116169,48.239914],[17.115376,48.239529],[17.115427,48.239485],[17.115279,48.239357],[17.11534,48.239135],[17.115152,48.23886],[17.114931,48.2388],[17.114844,48.238541],[17.114292,48.238527],[17.114102,48.238412],[17.11357,48.238315],[17.113375,48.238349],[17.113061,48.238194],[17.112514,48.238193],[17.112202,48.238055],[17.111867,48.23777],[17.11154,48.237693],[17.110541,48.237761],[17.110125,48.237921],[17.108941,48.237879],[17.108634,48.23794],[17.108539,48.237762],[17.108211,48.237806],[17.107605,48.23759],[17.107423,48.237459],[17.107657,48.237242],[17.107592,48.237047],[17.107669,48.236988],[17.10798,48.237048],[17.108057,48.236834],[17.107967,48.236719],[17.108077,48.236618],[17.108004,48.236488],[17.108254,48.236431],[17.108017,48.235945],[17.107673,48.235714],[17.107634,48.235501],[17.107562,48.235463],[17.107568,48.235337],[17.107663,48.235334],[17.107706,48.235228],[17.107327,48.234717],[17.107575,48.234578],[17.107554,48.234488],[17.107711,48.234454],[17.107566,48.234369],[17.107534,48.234222],[17.107657,48.234122],[17.107554,48.234088],[17.107462,48.233449],[17.107088,48.233324],[17.107018,48.233076],[17.107075,48.23279],[17.106968,48.232783],[17.107068,48.232654],[17.106912,48.232419],[17.106928,48.232326],[17.107179,48.232282],[17.106994,48.232161],[17.107383,48.232007],[17.107351,48.231],[17.107471,48.230965],[17.10767,48.230304],[17.107879,48.230079],[17.108443,48.22972],[17.10846,48.229548],[17.108556,48.229458],[17.108425,48.229329],[17.108913,48.229055],[17.109102,48.228771],[17.109205,48.228781],[17.109154,48.228721],[17.109347,48.228696],[17.10933,48.228631],[17.109457,48.228595],[17.109381,48.228472],[17.10997,48.227956]]]]}},{"type":"Feature","properties":{"name":"Rusovce","slug":"rusovce","osm_relation":2208778},"geometry":{"type":"MultiPolygon","coordinates":[[[[17.075694,48.027483],[17.076601,48.028392],[17.088857,48.03721],[17.091668,48.037795],[17.097176,48.041461],[17.10021,48.043592],[17.103881,48.046397],[17.107795,48.049646],[17.114073,48.053767],[17.119856,48.057369],[17.124068,48.060576],[17.125398,48.061951],[17.125368,48.062108],[17.125893,48.062601],[17.12928,48.064976],[17.129269,48.065085],[17.129881,48.06587],[17.130908,48.06675],[17.132439,48.068274],[17.136721,48.071577],[17.13866,48.072661],[17.140083,48.073252],[17.141595,48.073672],[17.149154,48.072745],[17.156669,48.072063],[17.157718,48.072443],[17.159685,48.070668],[17.162206,48.068577],[17.163154,48.06793],[17.16511,48.066782],[17.165887,48.066208],[17.167049,48.065029],[17.168996,48.062421],[17.169602,48.061751],[17.170377,48.061116],[17.172008,48.059998],[17.173989,48.058405],[17.175476,48.057576],[17.177115,48.056916],[17.178501,48.05649],[17.183042,48.055316],[17.187371,48.053795],[17.186669,48.052788],[17.182022,48.049623],[17.1809,48.049141],[17.179987,48.048549],[17.178868,48.047193],[17.178575,48.045907],[17.17783,48.04466],[17.17612,48.043498],[17.174315,48.041917],[17.175286,48.041611],[17.177381,48.041165],[17.178147,48.04018],[17.17813,48.040062],[17.176727,48.039619],[17.174963,48.039773],[17.173396,48.040168],[17.170833,48.03917],[17.167836,48.036901],[17.167738,48.036807],[17.167809,48.036573],[17.165776,48.03458],[17.165059,48.033839],[17.164914,48.033598],[17.164072,48.03326],[17.163051,48.032728],[17.157983,48.029946],[17.157658,48.029688],[17.157216,48.029088],[17.154893,48.027184],[17.153184,48.025952],[17.150874,48.024519],[17.149771,48.023696],[17.148126,48.022796],[17.148615,48.022223],[17.146069,48.021012],[17.144805,48.020467],[17.143796,48.020179],[17.142364,48.01952],[17.140043,48.020719],[17.138928,48.021581],[17.137441,48.022574],[17.136799,48.022854],[17.136379,48.022911],[17.134772,48.022715],[17.133011,48.022386],[17.13169,48.022871],[17.130839,48.022975],[17.126745,48.020938],[17.124293,48.022595],[17.123329,48.023452],[17.121948,48.024244],[17.121023,48.025101],[17.120327,48.025972],[17.118789,48.027084],[17.118022,48.027848],[17.117482,48.028236],[17.115027,48.029609],[17.114131,48.029935],[17.112936,48.030153],[17.112017,48.03057],[17.11006,48.031224],[17.107929,48.030068],[17.102627,48.026952],[17.094519,48.022488],[17.089866,48.019783],[17.089537,48.020524],[17.088168,48.021758],[17.087093,48.022561],[17.084834,48.023837],[17.080351,48.025882],[17.077923,48.026445],[17.075694,48.027483]]]]}},{"type":"Feature","properties":{"name":"Ružinov","slug":"ruzinov","osm_relation":2185279},"geometry":{"type":"MultiPolygon","coordinates":[[[[17.11737,48.138246],[17.120854,48.138081],[17.124692,48.137738],[17.132399,48.136599],[17.134363,48.136223],[17.13629,48.13569],[17.139454,48.134458],[17.141029,48.133445],[17.142676,48.13226],[17.144766,48.129623],[17.145292,48.128763],[17.146009,48.127012],[17.146258,48.126129],[17.146355,48.125213],[17.146359,48.122501],[17.14626,48.121586],[17.145749,48.119744],[17.145405,48.118817],[17.143973,48.116913],[17.143102,48.11595],[17.140792,48.113985],[17.139949,48.113023],[17.139256,48.112074],[17.138685,48.111132],[17.138279,48.110201],[17.138056,48.108378],[17.138017,48.107468],[17.138264,48.105681],[17.139116,48.101745],[17.139729,48.09998],[17.142531,48.096519],[17.143506,48.095185],[17.145324,48.096004],[17.149582,48.09773],[17.149106,48.100474],[17.154507,48.100896],[17.156779,48.103003],[17.157938,48.103258],[17.159933,48.10426],[17.160769,48.104298],[17.16139,48.104458],[17.161758,48.104684],[17.164451,48.104937],[17.166704,48.104966],[17.168361,48.104886],[17.169198,48.104619],[17.169332,48.104211],[17.16989,48.103783],[17.170717,48.103543],[17.171954,48.104299],[17.17292,48.105516],[17.17319,48.106328],[17.195228,48.107032],[17.193801,48.127096],[17.19326,48.127507],[17.191668,48.129098],[17.187691,48.12897],[17.187742,48.12867],[17.186842,48.130305],[17.186422,48.130243],[17.186308,48.130689],[17.186218,48.130784],[17.186432,48.131104],[17.187062,48.131641],[17.188228,48.132949],[17.18822,48.133354],[17.188097,48.133532],[17.187252,48.134094],[17.187669,48.13435],[17.186851,48.135205],[17.187001,48.135264],[17.186456,48.135829],[17.186066,48.136028],[17.185851,48.136401],[17.186561,48.136609],[17.187157,48.136893],[17.189961,48.138534],[17.189804,48.13859],[17.192732,48.140667],[17.192322,48.141122],[17.192393,48.141168],[17.190115,48.143645],[17.190198,48.143728],[17.19007,48.14387],[17.189931,48.143836],[17.189525,48.144111],[17.189055,48.144298],[17.188969,48.144204],[17.187352,48.144929],[17.186861,48.145347],[17.18679,48.14546],[17.186944,48.145433],[17.186294,48.146272],[17.184887,48.147699],[17.180019,48.150347],[17.180131,48.151124],[17.180423,48.151811],[17.180917,48.152257],[17.181555,48.152628],[17.184231,48.153641],[17.185377,48.153804],[17.186478,48.153753],[17.1869,48.153644],[17.187086,48.15322],[17.187134,48.153357],[17.188094,48.153965],[17.188805,48.154795],[17.189051,48.155248],[17.189117,48.155661],[17.188932,48.156292],[17.188571,48.156806],[17.187321,48.157739],[17.186794,48.158024],[17.186176,48.158228],[17.186717,48.159367],[17.186038,48.159476],[17.189285,48.159968],[17.18982,48.159623],[17.191518,48.159928],[17.195192,48.161225],[17.204139,48.164183],[17.206788,48.164763],[17.211826,48.165607],[17.215062,48.166309],[17.222445,48.167987],[17.227392,48.169242],[17.229519,48.168997],[17.232377,48.168368],[17.235411,48.167882],[17.237252,48.167775],[17.237288,48.16814],[17.237149,48.168399],[17.236395,48.169121],[17.2356,48.169448],[17.234221,48.169848],[17.231623,48.169365],[17.230923,48.169348],[17.230401,48.169457],[17.229601,48.16981],[17.228997,48.170251],[17.228675,48.170979],[17.228215,48.171039],[17.227468,48.171691],[17.226853,48.171984],[17.226226,48.172419],[17.22424,48.174124],[17.223916,48.174962],[17.223265,48.175998],[17.221089,48.178576],[17.220003,48.179491],[17.217919,48.181832],[17.218478,48.182332],[17.219202,48.182182],[17.220092,48.182183],[17.22047,48.182223],[17.221054,48.182514],[17.221828,48.183372],[17.222473,48.18472],[17.222918,48.185099],[17.224573,48.185944],[17.225134,48.186388],[17.225334,48.186876],[17.225224,48.187426],[17.22484,48.187869],[17.224746,48.18815],[17.224538,48.189893],[17.224648,48.191035],[17.224437,48.191747],[17.215702,48.191274],[17.199597,48.189962],[17.182313,48.189179],[17.180746,48.189],[17.179616,48.188764],[17.178514,48.188463],[17.174616,48.187041],[17.1752,48.186912],[17.174198,48.186029],[17.169375,48.180245],[17.168992,48.180208],[17.169126,48.180048],[17.167276,48.177987],[17.167301,48.177822],[17.166844,48.177376],[17.166349,48.177114],[17.166457,48.177022],[17.16599,48.176777],[17.166053,48.176724],[17.165342,48.176059],[17.158131,48.169706],[17.156064,48.168031],[17.155502,48.16782],[17.155344,48.167551],[17.154014,48.166921],[17.151411,48.165866],[17.150118,48.165409],[17.149962,48.165428],[17.148416,48.164823],[17.148095,48.164814],[17.146572,48.164179],[17.146333,48.16397],[17.142393,48.162423],[17.14236,48.162256],[17.140822,48.161587],[17.14046,48.16144],[17.140365,48.161546],[17.137704,48.160438],[17.137769,48.16033],[17.135651,48.159466],[17.135583,48.159545],[17.133876,48.158912],[17.133819,48.158974],[17.133131,48.158744],[17.131249,48.15867],[17.129253,48.158441],[17.128783,48.158632],[17.12872,48.158565],[17.129186,48.158364],[17.129145,48.158288],[17.128502,48.158281],[17.12802,48.158371],[17.127765,48.158093],[17.125405,48.156278],[17.125151,48.15607],[17.125135,48.155616],[17.125265,48.154981],[17.125646,48.153914],[17.125787,48.153916],[17.125903,48.153183],[17.126111,48.153094],[17.126024,48.153003],[17.126702,48.152713],[17.126609,48.152352],[17.126757,48.152331],[17.126417,48.151036],[17.12653,48.151],[17.126459,48.151012],[17.126428,48.15093],[17.12602,48.149772],[17.126083,48.149731],[17.126009,48.149744],[17.125182,48.147374],[17.125039,48.147357],[17.124763,48.146527],[17.13245,48.145748],[17.129222,48.140197],[17.120446,48.14085],[17.119601,48.14049],[17.117814,48.140087],[17.117917,48.139943],[17.117492,48.139963],[17.11737,48.138246]]]]}},{"type":"Feature","properties":{"name":"Staré Mesto","slug":"stare-mesto","osm_relation":1700677},"geometry":{"type":"MultiPolygon","coordinates":[[[[17.073448,48.174505],[17.073778,48.174311],[17.073881,48.174129],[17.073797,48.174056],[17.073783,48.173783],[17.073931,48.173259],[17.073921,48.172134],[17.073767,48.171898],[17.072905,48.171302],[17.072386,48.171221],[17.072135,48.171014],[17.076285,48.168725],[17.077823,48.167401],[17.077903,48.167237],[17.077669,48.166913],[17.077895,48.166833],[17.076712,48.165524],[17.076496,48.16508],[17.076414,48.16462],[17.076446,48.162203],[17.076541,48.161759],[17.076574,48.160555],[17.076498,48.160482],[17.076471,48.160166],[17.076554,48.156646],[17.077221,48.153139],[17.076865,48.151979],[17.076659,48.150888],[17.076405,48.147165],[17.076525,48.146771],[17.07613,48.146761],[17.075932,48.146027],[17.074917,48.144793],[17.074461,48.144381],[17.074395,48.144207],[17.074255,48.144187],[17.073896,48.142414],[17.07521,48.141996],[17.077998,48.141488],[17.080773,48.141273],[17.095242,48.138606],[17.098195,48.138365],[17.101013,48.138267],[17.104406,48.138225],[17.111359,48.138346],[17.117047,48.138254],[17.11689,48.135872],[17.117366,48.135859],[17.117165,48.135976],[17.117492,48.139963],[17.117917,48.139943],[17.117814,48.140087],[17.119601,48.14049],[17.120476,48.140851],[17.129222,48.140197],[17.13245,48.145748],[17.124763,48.146527],[17.125039,48.147357],[17.125182,48.147374],[17.126009,48.149744],[17.126083,48.149731],[17.12602,48.149772],[17.126428,48.15093],[17.126459,48.151012],[17.12653,48.151],[17.126417,48.151036],[17.126757,48.152331],[17.126609,48.152352],[17.126702,48.152713],[17.126024,48.153003],[17.126111,48.153094],[17.125903,48.153183],[17.125787,48.153916],[17.125646,48.153914],[17.125265,48.154981],[17.125135,48.155616],[17.125151,48.15607],[17.124883,48.155929],[17.120297,48.15739],[17.120157,48.157211],[17.119338,48.157578],[17.118169,48.157354],[17.118162,48.157514],[17.116986,48.158077],[17.115376,48.15947],[17.114739,48.15951],[17.11476,48.159609],[17.114627,48.15962],[17.113897,48.159186],[17.11387,48.159373],[17.113448,48.159619],[17.111215,48.158983],[17.109612,48.158821],[17.109068,48.158836],[17.108938,48.158756],[17.108167,48.158881],[17.10768,48.159057],[17.107519,48.159302],[17.107113,48.159543],[17.104896,48.160221],[17.103655,48.161151],[17.102502,48.161782],[17.099933,48.162627],[17.095895,48.163111],[17.095339,48.163313],[17.094725,48.163403],[17.092743,48.163514],[17.092884,48.163394],[17.092431,48.163333],[17.092449,48.163477],[17.091645,48.16389],[17.088004,48.164274],[17.085478,48.165003],[17.083359,48.165959],[17.081794,48.167029],[17.080802,48.16799],[17.078334,48.170956],[17.078181,48.171239],[17.077482,48.171974],[17.076218,48.172986],[17.073448,48.174505]]]]}},{"type":"Feature","properties":{"name":"Vajnory","slug":"vajnory","osm_relation":2190578},"geometry":{"type":"MultiPolygon","coordinates":[[[[17.154095,48.238542],[17.154396,48.238362],[17.154566,48.238059],[17.15483,48.237972],[17.155193,48.237362],[17.155578,48.237142],[17.155725,48.236905],[17.155917,48.236955],[17.156119,48.236871],[17.156533,48.236296],[17.156498,48.236165],[17.156568,48.236047],[17.157003,48.235789],[17.156989,48.23568],[17.157122,48.235542],[17.157439,48.235428],[17.157574,48.235207],[17.157841,48.235126],[17.158155,48.23474],[17.158427,48.234749],[17.158569,48.234674],[17.158543,48.234572],[17.158977,48.234449],[17.15967,48.233998],[17.159873,48.233822],[17.1599,48.233694],[17.160241,48.233563],[17.160347,48.233418],[17.160549,48.233326],[17.161111,48.233343],[17.161308,48.233167],[17.161267,48.233067],[17.16135,48.232971],[17.162218,48.232691],[17.1625,48.232492],[17.163057,48.231893],[17.163036,48.23165],[17.16326,48.231223],[17.163549,48.23099],[17.163491,48.230901],[17.163768,48.230664],[17.163768,48.230342],[17.163841,48.230301],[17.163771,48.230227],[17.163972,48.230126],[17.164013,48.229856],[17.164143,48.229688],[17.16401,48.229477],[17.164027,48.22925],[17.164372,48.228928],[17.165166,48.228746],[17.166011,48.228361],[17.166378,48.228102],[17.166233,48.227981],[17.167639,48.226512],[17.167951,48.225455],[17.168187,48.225113],[17.169971,48.223596],[17.170895,48.222965],[17.171981,48.222642],[17.173124,48.222098],[17.175664,48.220664],[17.175951,48.220241],[17.177584,48.218863],[17.177824,48.218551],[17.17844,48.218641],[17.178778,48.217621],[17.178066,48.217517],[17.178468,48.216825],[17.17851,48.216434],[17.178741,48.21582],[17.179771,48.214187],[17.180818,48.21274],[17.181087,48.21211],[17.181521,48.211761],[17.183045,48.209707],[17.183093,48.209236],[17.184313,48.205098],[17.184244,48.203432],[17.184303,48.202043],[17.184424,48.201316],[17.186248,48.197117],[17.186877,48.195932],[17.187096,48.192389],[17.188764,48.1925],[17.189202,48.18954],[17.187267,48.189462],[17.187272,48.18939],[17.199597,48.189962],[17.215702,48.191274],[17.224437,48.191747],[17.224064,48.192701],[17.224153,48.193364],[17.224854,48.194112],[17.225496,48.194595],[17.226294,48.194817],[17.228584,48.194752],[17.228682,48.194879],[17.229173,48.197707],[17.230092,48.197834],[17.231598,48.198481],[17.230811,48.1993],[17.228842,48.20202],[17.227904,48.203064],[17.227151,48.204046],[17.222288,48.20666],[17.219841,48.209411],[17.219723,48.209687],[17.215583,48.213768],[17.209258,48.218475],[17.20643,48.220212],[17.20086,48.22292],[17.196922,48.225155],[17.19389,48.227087],[17.193055,48.227996],[17.19214,48.228584],[17.191564,48.229095],[17.190552,48.229503],[17.190212,48.229809],[17.190025,48.229806],[17.189599,48.230205],[17.188603,48.230721],[17.18828,48.230675],[17.186603,48.23137],[17.185112,48.232414],[17.184118,48.232869],[17.183951,48.233054],[17.183424,48.233367],[17.183105,48.233525],[17.182022,48.233567],[17.181221,48.233801],[17.18106,48.233983],[17.180647,48.234162],[17.180435,48.234366],[17.180215,48.234413],[17.179601,48.234872],[17.179081,48.235005],[17.178826,48.235282],[17.178442,48.235507],[17.177672,48.235659],[17.177188,48.235649],[17.175909,48.235831],[17.174259,48.236818],[17.173778,48.236658],[17.173016,48.236773],[17.172287,48.236975],[17.172082,48.237182],[17.171767,48.237305],[17.17106,48.237335],[17.170722,48.237473],[17.170397,48.237738],[17.170014,48.237812],[17.169939,48.237983],[17.169602,48.238128],[17.169316,48.238458],[17.168585,48.238661],[17.167959,48.23894],[17.167308,48.239571],[17.167152,48.239833],[17.165959,48.240818],[17.165915,48.240981],[17.165289,48.241622],[17.165274,48.241782],[17.165176,48.241826],[17.165102,48.242019],[17.16519,48.242136],[17.165113,48.242486],[17.165297,48.242712],[17.165364,48.243104],[17.16533,48.24321],[17.165246,48.243222],[17.165268,48.243348],[17.164973,48.243532],[17.164849,48.243763],[17.16498,48.243897],[17.164588,48.244551],[17.16327,48.244408],[17.161649,48.243955],[17.159222,48.242451],[17.158186,48.240727],[17.156469,48.239324],[17.155486,48.238943],[17.154095,48.238542]]]]}},{"type":"Feature","properties":{"name":"Vrakuňa","slug":"vrakuna","osm_relation":2185281},"geometry":{"type":"MultiPolygon","coordinates":[[[[17.180019,48.150347],[17.180131,48.151124],[17.180423,48.151811],[17.180917,48.152257],[17.181555,48.152628],[17.183814,48.153516],[17.185146,48.15379],[17.185995,48.153816],[17.186718,48.153701],[17.1869,48.153644],[17.187086,48.15322],[17.187134,48.153357],[17.188094,48.153965],[17.188805,48.154795],[17.189051,48.155248],[17.189117,48.155661],[17.188932,48.156292],[17.188571,48.156806],[17.187321,48.157739],[17.186794,48.158024],[17.186176,48.158228],[17.186717,48.159367],[17.186038,48.159476],[17.189285,48.159968],[17.18982,48.159623],[17.191518,48.159928],[17.195192,48.161225],[17.204139,48.164183],[17.206788,48.164763],[17.211826,48.165607],[17.215062,48.166309],[17.222445,48.167987],[17.227392,48.169242],[17.229519,48.168997],[17.232377,48.168368],[17.235411,48.167882],[17.237252,48.167775],[17.236862,48.167275],[17.236296,48.166831],[17.235944,48.166645],[17.235478,48.166563],[17.23321,48.166609],[17.233043,48.166648],[17.232596,48.167056],[17.231292,48.167348],[17.230702,48.167278],[17.229872,48.167376],[17.229084,48.167146],[17.228691,48.16683],[17.228526,48.166484],[17.228409,48.165733],[17.228201,48.165417],[17.228275,48.165266],[17.227872,48.165008],[17.227177,48.163997],[17.228608,48.163859],[17.230261,48.164156],[17.231088,48.164512],[17.231765,48.164396],[17.231985,48.164293],[17.232136,48.163995],[17.232089,48.163793],[17.231848,48.163478],[17.231783,48.16313],[17.232175,48.162939],[17.233128,48.163004],[17.233655,48.162865],[17.233824,48.162767],[17.234278,48.162075],[17.234411,48.161781],[17.234506,48.161117],[17.234419,48.160054],[17.234611,48.159287],[17.2346,48.158741],[17.234216,48.15848],[17.23479,48.15823],[17.235177,48.157946],[17.235141,48.157567],[17.235245,48.157353],[17.23502,48.157116],[17.233599,48.156303],[17.234331,48.155509],[17.236625,48.153767],[17.238386,48.153284],[17.238707,48.151135],[17.237686,48.14976],[17.238984,48.148447],[17.23755,48.14586],[17.237731,48.145796],[17.237394,48.144408],[17.237439,48.144179],[17.23651,48.143858],[17.236049,48.143856],[17.222644,48.138582],[17.221435,48.138071],[17.22055,48.137332],[17.218414,48.13616],[17.217667,48.136065],[17.216591,48.138246],[17.216341,48.138417],[17.215809,48.138447],[17.215288,48.138293],[17.212293,48.137036],[17.206754,48.134645],[17.203612,48.137873],[17.203505,48.13815],[17.202961,48.138881],[17.202803,48.139309],[17.202672,48.140112],[17.202675,48.14059],[17.202174,48.140603],[17.201844,48.141138],[17.202027,48.141872],[17.202187,48.141976],[17.202409,48.141914],[17.202763,48.143051],[17.202637,48.14307],[17.202049,48.14368],[17.200076,48.14392],[17.199301,48.143367],[17.197929,48.14194],[17.196251,48.142603],[17.192819,48.140568],[17.192322,48.141122],[17.192393,48.141168],[17.190115,48.143645],[17.190198,48.143728],[17.19007,48.14387],[17.189931,48.143836],[17.189525,48.144111],[17.189055,48.144298],[17.188969,48.144204],[17.187352,48.144929],[17.186861,48.145347],[17.18679,48.14546],[17.186944,48.145433],[17.186294,48.146272],[17.184887,48.147699],[17.180019,48.150347]]]]}},{"type":"Feature","properties":{"name":"Záhorská Bystrica","slug":"zahorska-bystrica","osm_relation":2208773},"geometry":{"type":"MultiPolygon","coordinates":[[[[16.957834,48.263361],[16.957963,48.263233],[16.959624,48.263091],[16.959641,48.261883],[16.959795,48.260904],[16.959764,48.260349],[16.96019,48.260389],[16.960331,48.260166],[16.960832,48.25997],[16.961072,48.26001],[16.961866,48.259871],[16.961801,48.25964],[16.962246,48.259577],[16.962132,48.259191],[16.962859,48.25913],[16.962723,48.258862],[16.96313,48.258822],[16.963392,48.258688],[16.963692,48.258446],[16.96424,48.258234],[16.965312,48.257517],[16.968632,48.25441],[16.96874,48.254211],[16.969536,48.253514],[16.970485,48.252522],[16.980734,48.2412],[16.980807,48.241164],[16.984856,48.243005],[16.986783,48.243794],[16.989931,48.239621],[16.991965,48.2403],[17.001071,48.228191],[17.004794,48.229787],[17.007521,48.229831],[17.00829,48.227587],[17.008859,48.225008],[17.008823,48.224756],[17.00771,48.221838],[17.007485,48.221416],[17.006806,48.220538],[17.006995,48.22057],[17.006873,48.220417],[17.008907,48.220733],[17.009652,48.221086],[17.010059,48.221464],[17.01353,48.220415],[17.015873,48.220389],[17.01815,48.219773],[17.018646,48.219714],[17.021538,48.22002],[17.023782,48.219697],[17.024112,48.219538],[17.030851,48.212985],[17.031875,48.211834],[17.037715,48.207737],[17.038079,48.20764],[17.03881,48.207729],[17.040001,48.205807],[17.040751,48.204995],[17.041267,48.204684],[17.041325,48.204593],[17.041222,48.204486],[17.041584,48.203752],[17.042198,48.202995],[17.042624,48.20274],[17.043156,48.202555],[17.044791,48.202174],[17.047489,48.201751],[17.048089,48.20125],[17.048745,48.200944],[17.048926,48.200542],[17.049674,48.199952],[17.049844,48.199385],[17.049939,48.199281],[17.050871,48.198557],[17.051123,48.198434],[17.051686,48.198372],[17.052114,48.197975],[17.053548,48.198135],[17.053849,48.198388],[17.054502,48.198681],[17.05492,48.198751],[17.055154,48.198938],[17.055373,48.199386],[17.055758,48.199753],[17.056182,48.199861],[17.056835,48.199841],[17.056995,48.199916],[17.057112,48.200443],[17.057311,48.200745],[17.057512,48.201383],[17.057717,48.201635],[17.057206,48.202231],[17.057123,48.202526],[17.057319,48.203308],[17.058084,48.20385],[17.058494,48.204329],[17.058143,48.2058],[17.058619,48.20655],[17.058606,48.208681],[17.058751,48.209234],[17.058739,48.209353],[17.05784,48.210362],[17.056863,48.21168],[17.056333,48.212218],[17.056308,48.212854],[17.056601,48.213361],[17.057177,48.21384],[17.058028,48.214124],[17.058251,48.21429],[17.059226,48.214457],[17.060291,48.214351],[17.061068,48.213939],[17.061757,48.213693],[17.062174,48.214369],[17.062928,48.214834],[17.063506,48.215005],[17.064741,48.214722],[17.065371,48.214822],[17.066054,48.214545],[17.067702,48.214318],[17.068118,48.214698],[17.068584,48.21603],[17.069034,48.21673],[17.069669,48.217225],[17.070506,48.218862],[17.070407,48.219451],[17.069911,48.220527],[17.071609,48.22169],[17.072518,48.222139],[17.073142,48.222234],[17.074111,48.222573],[17.075572,48.223278],[17.077841,48.223142],[17.08054,48.221928],[17.081428,48.221966],[17.083565,48.22138],[17.084269,48.221278],[17.086473,48.220268],[17.088843,48.217852],[17.089603,48.217816],[17.090661,48.217938],[17.09068,48.218077],[17.09036,48.218323],[17.089648,48.218645],[17.089588,48.218958],[17.089402,48.219125],[17.08921,48.219483],[17.089214,48.22008],[17.089347,48.220216],[17.089282,48.220465],[17.089095,48.220427],[17.088987,48.220558],[17.089356,48.22075],[17.089338,48.220866],[17.089517,48.221023],[17.089426,48.221368],[17.089458,48.221726],[17.089679,48.221818],[17.089734,48.222078],[17.089852,48.22213],[17.090374,48.22217],[17.090741,48.22204],[17.091191,48.222113],[17.091239,48.22196],[17.091681,48.221978],[17.09178,48.222062],[17.09184,48.22194],[17.091773,48.221813],[17.091905,48.221773],[17.091892,48.221591],[17.09196,48.221553],[17.092188,48.221598],[17.092361,48.221442],[17.092703,48.22133],[17.09368,48.22132],[17.09383,48.221569],[17.09418,48.221493],[17.094336,48.221849],[17.09449,48.221853],[17.094591,48.221991],[17.09509,48.221944],[17.095132,48.222082],[17.095592,48.222197],[17.095583,48.22248],[17.095834,48.222547],[17.095893,48.222947],[17.096221,48.223286],[17.096571,48.223382],[17.096678,48.223519],[17.096935,48.223519],[17.097066,48.223596],[17.097307,48.223884],[17.097242,48.223997],[17.097401,48.223972],[17.097506,48.224087],[17.097717,48.224054],[17.097842,48.223928],[17.098227,48.22391],[17.09831,48.224035],[17.098468,48.223992],[17.098699,48.224069],[17.099132,48.2238],[17.09931,48.223785],[17.099292,48.223729],[17.099596,48.223687],[17.099615,48.223561],[17.100128,48.223388],[17.100363,48.223524],[17.100254,48.223658],[17.100238,48.223738],[17.100301,48.223747],[17.100388,48.223646],[17.100798,48.223563],[17.100612,48.223447],[17.100746,48.223241],[17.100698,48.223201],[17.101027,48.223169],[17.101123,48.223056],[17.101353,48.223102],[17.101487,48.223255],[17.101682,48.223132],[17.101902,48.223191],[17.102602,48.223041],[17.10282,48.223119],[17.103009,48.223032],[17.102886,48.222952],[17.102917,48.222836],[17.103142,48.22296],[17.103364,48.222921],[17.103406,48.222822],[17.103283,48.222736],[17.10344,48.2226],[17.103736,48.222507],[17.104166,48.222568],[17.104574,48.222841],[17.104824,48.222911],[17.104849,48.223017],[17.105141,48.223055],[17.105315,48.223171],[17.105511,48.22313],[17.10571,48.223243],[17.105735,48.223082],[17.10591,48.223084],[17.105899,48.223337],[17.106136,48.223269],[17.10636,48.223709],[17.106307,48.223852],[17.106562,48.22406],[17.106599,48.224268],[17.106763,48.224301],[17.106686,48.224391],[17.106856,48.224785],[17.106794,48.224835],[17.107369,48.225054],[17.107091,48.225198],[17.107208,48.225315],[17.107334,48.225287],[17.107425,48.225402],[17.1073,48.22542],[17.107249,48.22567],[17.107641,48.22576],[17.107464,48.225947],[17.107339,48.225971],[17.107443,48.226079],[17.107393,48.226139],[17.107639,48.22613],[17.107651,48.22623],[17.107954,48.226549],[17.108485,48.226793],[17.108652,48.22703],[17.108841,48.227034],[17.109024,48.226902],[17.10907,48.227041],[17.109234,48.227124],[17.109272,48.227317],[17.109502,48.227314],[17.109618,48.227439],[17.109597,48.227583],[17.109734,48.227746],[17.109998,48.227575],[17.109997,48.227709],[17.110222,48.227742],[17.110192,48.227849],[17.109684,48.228167],[17.109572,48.228367],[17.109381,48.228472],[17.109457,48.228595],[17.10933,48.228631],[17.109347,48.228696],[17.109154,48.228721],[17.109205,48.228781],[17.109102,48.228771],[17.108913,48.229055],[17.108425,48.229329],[17.108556,48.229458],[17.10846,48.229548],[17.108443,48.22972],[17.107879,48.230079],[17.10767,48.230304],[17.107471,48.230965],[17.107351,48.231],[17.107383,48.232007],[17.106994,48.232161],[17.107179,48.232282],[17.106928,48.232326],[17.106912,48.232419],[17.107068,48.232654],[17.106968,48.232783],[17.107075,48.23279],[17.107018,48.233076],[17.107088,48.233324],[17.107462,48.233449],[17.107554,48.234088],[17.107657,48.234122],[17.107534,48.234222],[17.107566,48.234369],[17.107711,48.234454],[17.107554,48.234488],[17.107575,48.234578],[17.107327,48.234717],[17.107706,48.235228],[17.107663,48.235334],[17.107568,48.235337],[17.107562,48.235463],[17.107634,48.235501],[17.107673,48.235714],[17.108017,48.235945],[17.108254,48.236431],[17.108004,48.236488],[17.108077,48.236618],[17.107967,48.236719],[17.108057,48.236834],[17.10798,48.237048],[17.107669,48.236988],[17.107592,48.237047],[17.107657,48.237242],[17.107423,48.237459],[17.107605,48.23759],[17.108125,48.237725],[17.108116,48.237787],[17.108539,48.237762],[17.108634,48.23794],[17.108941,48.237879],[17.110125,48.237921],[17.110541,48.237761],[17.11154,48.237693],[17.111867,48.23777],[17.112202,48.238055],[17.112514,48.238193],[17.113061,48.238194],[17.113375,48.238349],[17.11357,48.238315],[17.114102,48.238412],[17.114292,48.238527],[17.114844,48.238541],[17.114931,48.2388],[17.115152,48.23886],[17.11534,48.239135],[17.115279,48.239357],[17.115427,48.239485],[17.115376,48.239529],[17.116169,48.239914],[17.116232,48.240126],[17.11642,48.240288],[17.117046,48.240213],[17.117451,48.240293],[17.117741,48.241044],[17.118139,48.241089],[17.118228,48.241036],[17.118371,48.241102],[17.118873,48.241026],[17.119425,48.241201],[17.119717,48.241165],[17.119936,48.241292],[17.120538,48.241417],[17.120797,48.24142],[17.121122,48.241264],[17.121466,48.241367],[17.121659,48.241588],[17.121687,48.241865],[17.122202,48.242107],[17.122303,48.242028],[17.12283,48.242096],[17.12314,48.241913],[17.123504,48.242113],[17.123642,48.242048],[17.123718,48.24189],[17.124108,48.241816],[17.124373,48.241953],[17.124547,48.242269],[17.124974,48.242569],[17.125402,48.242613],[17.126167,48.242877],[17.126622,48.242835],[17.126849,48.242693],[17.127105,48.242695],[17.127278,48.242952],[17.127827,48.242998],[17.128138,48.243106],[17.128361,48.243043],[17.128259,48.242866],[17.128357,48.242816],[17.128945,48.242753],[17.129586,48.242938],[17.130033,48.242789],[17.130886,48.242949],[17.131296,48.242827],[17.13267,48.242768],[17.133082,48.242633],[17.133567,48.242796],[17.134222,48.242837],[17.135383,48.243303],[17.135855,48.244101],[17.136032,48.244788],[17.136779,48.246731],[17.137305,48.24752],[17.136981,48.247577],[17.13461,48.247518],[17.131105,48.247979],[17.129266,48.247963],[17.126663,48.246973],[17.126156,48.246665],[17.124831,48.246602],[17.124179,48.246329],[17.122998,48.245154],[17.122542,48.244752],[17.122257,48.244633],[17.1205,48.244372],[17.119449,48.244498],[17.118723,48.2445],[17.116843,48.244858],[17.116431,48.245021],[17.113985,48.245592],[17.112299,48.246457],[17.111699,48.246908],[17.111117,48.247186],[17.110215,48.247289],[17.10966,48.247437],[17.10921,48.247405],[17.107826,48.247825],[17.106104,48.248053],[17.105608,48.248194],[17.104001,48.248266],[17.103059,48.248538],[17.101924,48.248488],[17.101133,48.248595],[17.099352,48.249376],[17.09818,48.249422],[17.097528,48.249529],[17.09673,48.2492],[17.095595,48.249288],[17.095271,48.249229],[17.095029,48.248802],[17.09459,48.24838],[17.094289,48.24782],[17.093711,48.247211],[17.09321,48.24708],[17.092524,48.247068],[17.09183,48.246813],[17.091048,48.246694],[17.089737,48.247072],[17.088795,48.247219],[17.087874,48.247779],[17.087106,48.247926],[17.086236,48.247905],[17.085934,48.248221],[17.0858,48.24849],[17.085602,48.24862],[17.084658,48.2489],[17.084406,48.249174],[17.083646,48.249287],[17.082369,48.24974],[17.081415,48.249849],[17.080919,48.249643],[17.081203,48.249526],[17.081291,48.249263],[17.08161,48.24908],[17.08196,48.248654],[17.082379,48.247943],[17.082556,48.247403],[17.082527,48.247124],[17.082322,48.246962],[17.081526,48.247148],[17.081473,48.246985],[17.081646,48.246873],[17.081517,48.246719],[17.081586,48.24664],[17.081535,48.246457],[17.081781,48.246287],[17.081628,48.246154],[17.081736,48.245942],[17.081679,48.245864],[17.081772,48.245439],[17.081711,48.245108],[17.081638,48.245059],[17.081686,48.244405],[17.081554,48.243822],[17.080862,48.24315],[17.080811,48.242834],[17.080468,48.242692],[17.079087,48.242565],[17.078003,48.242033],[17.077951,48.241844],[17.077686,48.241553],[17.077525,48.240963],[17.077283,48.240676],[17.077195,48.240439],[17.076364,48.240102],[17.076337,48.23982],[17.076222,48.239631],[17.07625,48.239172],[17.07611,48.239133],[17.076079,48.238822],[17.076266,48.238495],[17.076202,48.238417],[17.076291,48.23829],[17.076135,48.23813],[17.076172,48.237902],[17.076574,48.237462],[17.076522,48.237331],[17.076684,48.23713],[17.07669,48.236835],[17.076624,48.236743],[17.076694,48.236607],[17.076609,48.236427],[17.0767,48.236214],[17.07667,48.235916],[17.07641,48.235954],[17.076175,48.23583],[17.075499,48.23586],[17.073779,48.235631],[17.072481,48.236196],[17.071571,48.2367],[17.070831,48.23666],[17.069979,48.2371],[17.069621,48.237433],[17.069392,48.23801],[17.068565,48.238699],[17.067873,48.2396],[17.067832,48.240478],[17.067956,48.240777],[17.068158,48.24094],[17.068215,48.241275],[17.068096,48.241517],[17.067359,48.242156],[17.066667,48.242352],[17.066506,48.242314],[17.065608,48.242663],[17.064827,48.242651],[17.063818,48.242477],[17.063442,48.242576],[17.062999,48.242527],[17.062076,48.242774],[17.061691,48.242717],[17.061537,48.242798],[17.06133,48.242745],[17.061106,48.242825],[17.060428,48.242677],[17.059861,48.242664],[17.0593,48.24281],[17.058731,48.24313],[17.058648,48.243289],[17.05866,48.243486],[17.058568,48.243584],[17.057986,48.243645],[17.057774,48.243832],[17.057419,48.243661],[17.057238,48.243663],[17.05717,48.243752],[17.056128,48.243963],[17.055436,48.24402],[17.053768,48.244595],[17.053241,48.244668],[17.051414,48.24475],[17.050014,48.244965],[17.049014,48.24496],[17.048123,48.24514],[17.04717,48.245508],[17.046766,48.245842],[17.046733,48.246032],[17.04594,48.246922],[17.044816,48.249292],[17.044442,48.250351],[17.04572,48.251167],[17.044192,48.252069],[17.043598,48.25175],[17.042748,48.251085],[17.040328,48.250769],[17.038487,48.250708],[17.036532,48.250791],[17.035439,48.250687],[17.034883,48.250534],[17.03424,48.251136],[17.032858,48.250797],[17.02946,48.250178],[17.02887,48.250985],[17.025094,48.250575],[17.023943,48.250119],[17.023304,48.250181],[17.022634,48.250352],[17.021797,48.250112],[17.020771,48.250122],[17.020495,48.249496],[17.020183,48.249057],[17.018556,48.248708],[17.018406,48.248486],[17.01837,48.248052],[17.006607,48.250443],[17.00385,48.250896],[17.003398,48.250946],[17.00113,48.250774],[16.99959,48.250928],[16.997881,48.25123],[16.998202,48.252003],[16.997538,48.252117],[16.996496,48.252509],[16.995964,48.252606],[16.994968,48.252684],[16.993931,48.252621],[16.99398,48.252342],[16.993203,48.252314],[16.991686,48.252038],[16.990789,48.252172],[16.989544,48.252006],[16.989376,48.252511],[16.987222,48.252251],[16.987035,48.252565],[16.987152,48.252618],[16.986893,48.252763],[16.986555,48.253418],[16.985682,48.253101],[16.985104,48.253361],[16.984437,48.253887],[16.983906,48.25474],[16.983479,48.255159],[16.982664,48.255709],[16.977943,48.258613],[16.975631,48.260222],[16.975294,48.260363],[16.974799,48.26087],[16.972379,48.262215],[16.971895,48.262414],[16.972003,48.262546],[16.971499,48.262896],[16.969698,48.263642],[16.967898,48.26349],[16.964434,48.264039],[16.963123,48.264394],[16.960275,48.264861],[16.958477,48.265068],[16.958388,48.264344],[16.957834,48.263361]]]]}}]}
